{
"type": "FeatureCollection",
"name": "felskandidaten_25m",
"crs": { "type": "name", "properties": { "name": "urn:ogc:def:crs:OGC:1.3:CRS84" } },
"features": [
{ "type": "Feature", "properties": { "id": 7, "area_m2": 825.0, "n_cells": 33, "vert_extent_m": 48.580078125, "z_min_m": 1328.43994140625, "z_max_m": 1377.02001953125, "elev_m": 1355.5763124408145, "slope_mean_deg": 56.083026539195664, "slope_max_deg": 60.659492492675781, "slope_std_deg": 2.4476301080509257, "slope05_std_deg": 1.0285572508970897, "ndom_mean_m": 1.5755559747869319, "aspect_mean_deg": 175.61817147428653, "centroid_e": 722503.6742424242, "centroid_n": 5175315.7196969697, "geologie": "Permo-jurassische Sedimentabfolge", "geologie_eignung": 0.7, "geologie_klasse": "gemischt_karbonat_werfener", "schutzgebiet": null, "im_schutzgebiet": false, "dist_weg_m": 258.1052179287629, "weg_typ": "track", "score_wall_height": 1.0, "score_slope_compact": 0.9021, "score_geology": 0.7, "score_south_aspect": 0.9985, "score_access": 0.9168, "score": 0.9119, "profil": "25m", "lat": 46.694373706112891, "lon": 11.910214805146971 }, "geometry": { "type": "Polygon", "coordinates": [ [ [ 11.910288610436801, 46.694511598958528 ], [ 11.910286194243358, 46.694466660846103 ], [ 11.909959639084981, 46.694474972840652 ], [ 11.909957223167515, 46.69443003471482 ], [ 11.909891912172494, 46.694431696999438 ], [ 11.909889496314854, 46.69438675887055 ], [ 11.90995480725584, 46.694385096588526 ], [ 11.909952391349963, 46.694340158461785 ], [ 11.910148323976047, 46.694335171400105 ], [ 11.910143491857458, 46.694245295160847 ], [ 11.910208802613157, 46.694243632737674 ], [ 11.910206386508518, 46.694198694619956 ], [ 11.910271697204392, 46.694197032162158 ], [ 11.910274113363068, 46.694241970277282 ], [ 11.910339424107178, 46.694240307779644 ], [ 11.910341840325684, 46.694285245891713 ], [ 11.910407151118038, 46.694283583354263 ], [ 11.910409567396375, 46.694328521463284 ], [ 11.910474878236968, 46.694326858886001 ], [ 11.910479710919095, 46.694416735097526 ], [ 11.910414399970428, 46.694418397679989 ], [ 11.910416816266149, 46.69446333578766 ], [ 11.910351505257653, 46.694464998335505 ], [ 11.910353921505131, 46.694509936445328 ], [ 11.910288610436801, 46.694511598958528 ] ] ] } },
{ "type": "Feature", "properties": { "id": 5, "area_m2": 1400.0, "n_cells": 56, "vert_extent_m": 58.0299072265625, "z_min_m": 1165.56005859375, "z_max_m": 1223.5899658203125, "elev_m": 1195.7774636404854, "slope_mean_deg": 49.390443393162322, "slope_max_deg": 54.907085418701172, "slope_std_deg": 3.0499820141637164, "slope05_std_deg": 1.5304096974432468, "ndom_mean_m": 2.1216179983956471, "aspect_mean_deg": 132.830563704203, "centroid_e": 719456.33928571432, "centroid_n": 5176053.5714285718, "geologie": "Niedriggradig metamorphes varisziches Grundgebirge: Brixen Quartzphyllit", "geologie_eignung": 0.65, "geologie_klasse": "mittel", "schutzgebiet": null, "im_schutzgebiet": false, "dist_weg_m": 70.365284411812581, "weg_typ": "track", "score_wall_height": 1.0, "score_slope_compact": 0.878, "score_geology": 0.65, "score_south_aspect": 0.8399, "score_access": 1.0, "score": 0.8816, "profil": "25m", "lat": 46.702011758850418, "lon": 11.870760640468555 }, "geometry": { "type": "Polygon", "coordinates": [ [ [ 11.870609364642094, 46.702264661283721 ], [ 11.870606980718573, 46.702219721658722 ], [ 11.870541658062207, 46.702221361691372 ], [ 11.870539274198471, 46.702176422063381 ], [ 11.870604596800774, 46.702174782033296 ], [ 11.870585525664211, 46.701815265013671 ], [ 11.870650847828271, 46.701813624966817 ], [ 11.870648463907868, 46.701768685339914 ], [ 11.870779108110705, 46.701765405139589 ], [ 11.870776724087889, 46.701720465517354 ], [ 11.870842046126665, 46.701718825363876 ], [ 11.870844430203546, 46.701763764983554 ], [ 11.870909752290668, 46.701762124790285 ], [ 11.870921673031173, 46.701986822869145 ], [ 11.870986995382902, 46.701985182625826 ], [ 11.870989379602223, 46.702030122237694 ], [ 11.870924057196429, 46.702031762483578 ], [ 11.870933593914641, 46.7022115209368 ], [ 11.870868271286865, 46.702213161155676 ], [ 11.870870655426648, 46.702258100770422 ], [ 11.870609364642094, 46.702264661283721 ] ] ] } },
{ "type": "Feature", "properties": { "id": 1, "area_m2": 3425.0, "n_cells": 137, "vert_extent_m": 70.14996337890625, "z_min_m": 896.20001220703125, "z_max_m": 966.3499755859375, "elev_m": 927.61181195112908, "slope_mean_deg": 51.2533362729706, "slope_max_deg": 64.815818786621094, "slope_std_deg": 5.6602376150315949, "slope05_std_deg": 2.398317944611946, "ndom_mean_m": 0.79952702209027149, "aspect_mean_deg": 218.51462689008028, "centroid_e": 719077.63686131383, "centroid_n": 5182437.1806569342, "geologie": "Niedriggradig metamorphes varisziches Grundgebirge: Brixen Quartzphyllit", "geologie_eignung": 0.65, "geologie_klasse": "mittel", "schutzgebiet": null, "im_schutzgebiet": false, "dist_weg_m": 30.19124812581375, "weg_typ": "primary", "score_wall_height": 1.0, "score_slope_compact": 0.7736, "score_geology": 0.65, "score_south_aspect": 0.8912, "score_access": 1.0, "score": 0.8684, "profil": "25m", "lat": 46.759511154359103, "lon": 11.868856248825921 }, "geometry": { "type": "Polygon", "coordinates": [ [ [ 11.868821681099943, 46.759818639785436 ], [ 11.868819293867915, 46.759773700543775 ], [ 11.868623117002004, 46.759778622070051 ], [ 11.868620729938405, 46.759733682820261 ], [ 11.868555337692539, 46.759735323251817 ], [ 11.868552950688903, 46.759690383999015 ], [ 11.868291381865079, 46.759696945341787 ], [ 11.868288995084102, 46.759652006078312 ], [ 11.868223602918055, 46.759653646318135 ], [ 11.868218829481755, 46.759563767784684 ], [ 11.868284221539335, 46.759562127549977 ], [ 11.868281834775548, 46.759517188285159 ], [ 11.868543402731651, 46.759510626983356 ], [ 11.868541015756664, 46.759465687728309 ], [ 11.868737191500884, 46.759460766367773 ], [ 11.868725255898413, 46.759236070124274 ], [ 11.868790647530535, 46.759234429608931 ], [ 11.868788260373002, 46.75918949036145 ], [ 11.868919043511591, 46.75918620922392 ], [ 11.868916656251324, 46.759141269981107 ], [ 11.869112830753538, 46.759136348002599 ], [ 11.869115218176498, 46.75918128723773 ], [ 11.869180609720006, 46.759179646501032 ], [ 11.869192547191926, 46.759404342657128 ], [ 11.869257939000859, 46.759402701870293 ], [ 11.869260326566668, 46.759447641097616 ], [ 11.869325718424102, 46.759446000270906 ], [ 11.869330493681376, 46.759535878719049 ], [ 11.869265101715477, 46.759537519550889 ], [ 11.86926748929848, 46.759582458776862 ], [ 11.869202097272622, 46.759584099573935 ], [ 11.869206872347354, 46.759673978029646 ], [ 11.869141480207295, 46.759675618794525 ], [ 11.869143867699027, 46.759720558024284 ], [ 11.869078475499007, 46.75972219875441 ], [ 11.869080862942237, 46.759767137986259 ], [ 11.869015470682253, 46.759768778681618 ], [ 11.86901785807698, 46.759813717915591 ], [ 11.868821681099943, 46.759818639785436 ] ] ] } },
{ "type": "Feature", "properties": { "id": 16, "area_m2": 850.0, "n_cells": 34, "vert_extent_m": 50.030029296875, "z_min_m": 1401.1099853515625, "z_max_m": 1451.1400146484375, "elev_m": 1424.7317648494945, "slope_mean_deg": 59.711434869205249, "slope_max_deg": 65.962493896484375, "slope_std_deg": 3.4768102513939052, "slope05_std_deg": 1.4315704970675356, "ndom_mean_m": 0.10165943818933823, "aspect_mean_deg": 60.094997121593153, "centroid_e": 724087.57352941181, "centroid_n": 5174672.1323529407, "geologie": "Permo-jurassische Sedimentabfolge", "geologie_eignung": 0.7, "geologie_klasse": "gemischt_karbonat_werfener", "schutzgebiet": null, "im_schutzgebiet": false, "dist_weg_m": 76.965516865376088, "weg_typ": "track", "score_wall_height": 1.0, "score_slope_compact": 0.8609, "score_geology": 0.7, "score_south_aspect": 0.2507, "score_access": 1.0, "score": 0.7998, "profil": "25m", "lat": 46.688060989658688, "lon": 11.930590542079321 }, "geometry": { "type": "Polygon", "coordinates": [ [ [ 11.930353998745511, 46.688239110471343 ], [ 11.930351566440351, 46.688194173113487 ], [ 11.930286264149336, 46.688195846868346 ], [ 11.930283831904021, 46.688150909507435 ], [ 11.930349134141021, 46.688149235755191 ], [ 11.930346701847524, 46.68810429839646 ], [ 11.93041200402468, 46.688102624609606 ], [ 11.930409571683001, 46.688057687253014 ], [ 11.930474873800309, 46.688056013431556 ], [ 11.930472441410451, 46.688011076077132 ], [ 11.930537743467912, 46.688009402221063 ], [ 11.930535311029873, 46.687964464868799 ], [ 11.930600613027487, 46.687962790978119 ], [ 11.930598180541267, 46.687917853628015 ], [ 11.930663482479037, 46.687916179702725 ], [ 11.930661049944636, 46.687871242354781 ], [ 11.930791653694646, 46.687867894397769 ], [ 11.930794086337073, 46.687912831740498 ], [ 11.930859388257341, 46.687911157703539 ], [ 11.930864253667721, 46.688001032382395 ], [ 11.930798951639428, 46.688002706424584 ], [ 11.930801384299354, 46.688047643765941 ], [ 11.93073608221121, 46.688049317773505 ], [ 11.930738514822959, 46.688094255117029 ], [ 11.930673212674968, 46.688095929089982 ], [ 11.930675645238535, 46.688140866435667 ], [ 11.930610343030697, 46.68814254037401 ], [ 11.930612775546082, 46.688187477721861 ], [ 11.9305474732784, 46.6881891516256 ], [ 11.930549905745606, 46.688234088975605 ], [ 11.930353998745511, 46.688239110471343 ] ] ] } },
{ "type": "Feature", "properties": { "id": 19, "area_m2": 325.0, "n_cells": 13, "vert_extent_m": 37.0299072265625, "z_min_m": 1640.4300537109375, "z_max_m": 1677.4599609375, "elev_m": 1657.5777212289663, "slope_mean_deg": 56.028826493483322, "slope_max_deg": 61.674652099609375, "slope_std_deg": 2.7856622137969533, "slope05_std_deg": 1.5620332360267639, "ndom_mean_m": 2.0130098783052883, "aspect_mean_deg": 63.440072791025351, "centroid_e": 725052.40384615387, "centroid_n": 5173284.903846154, "geologie": "Permo-jurassische Sedimentabfolge", "geologie_eignung": 0.7, "geologie_klasse": "gemischt_karbonat_werfener", "schutzgebiet": null, "im_schutzgebiet": false, "dist_weg_m": 34.379725445989386, "weg_typ": "track", "score_wall_height": 0.9257, "score_slope_compact": 0.8886, "score_geology": 0.7, "score_south_aspect": 0.2764, "score_access": 1.0, "score": 0.7832, "profil": "25m", "lat": 46.675269737880221, "lon": 11.94251397519383 }, "geometry": { "type": "Polygon", "coordinates": [ [ [ 11.942537092086773, 46.675371257826114 ], [ 11.94253465077488, 46.675326320857707 ], [ 11.94240407861802, 46.675329681531466 ], [ 11.94240163741993, 46.675284744557359 ], [ 11.942336351386695, 46.675286424835811 ], [ 11.942333910248433, 46.675241487858621 ], [ 11.942399196227692, 46.675239807582791 ], [ 11.94239675504131, 46.675194870607768 ], [ 11.942592612782047, 46.675189829564921 ], [ 11.942595054130354, 46.675234766532078 ], [ 11.942660340086205, 46.67523308610744 ], [ 11.942665222908328, 46.675322960035132 ], [ 11.94259993684453, 46.675324640465021 ], [ 11.942602378210397, 46.6753695774308 ], [ 11.942537092086773, 46.675371257826114 ] ] ] } },
{ "type": "Feature", "properties": { "id": 2, "area_m2": 600.0, "n_cells": 24, "vert_extent_m": 33.4300537109375, "z_min_m": 893.219970703125, "z_max_m": 926.6500244140625, "elev_m": 909.44750722249353, "slope_mean_deg": 58.772605260213219, "slope_max_deg": 67.573043823242188, "slope_std_deg": 4.9628869227854837, "slope05_std_deg": 3.1762970760464668, "ndom_mean_m": 1.9559307098388672, "aspect_mean_deg": 251.7896927335529, "centroid_e": 719113.125, "centroid_n": 5182348.541666667, "geologie": "Niedriggradig metamorphes varisziches Grundgebirge: Brixen Quartzphyllit", "geologie_eignung": 0.65, "geologie_klasse": "mittel", "schutzgebiet": null, "im_schutzgebiet": false, "dist_weg_m": 11.824815525243213, "weg_typ": "primary", "score_wall_height": 0.8358, "score_slope_compact": 0.8015, "score_geology": 0.65, "score_south_aspect": 0.6563, "score_access": 1.0, "score": 0.7812, "profil": "25m", "lat": 46.758702835637258, "lon": 11.86927805007624 }, "geometry": { "type": "Polygon", "coordinates": [ [ [ 11.869231676155218, 46.758908370340258 ], [ 11.869229288658181, 46.758863431107564 ], [ 11.86916389750002, 46.75886507186366 ], [ 11.869151960371955, 46.758640375680656 ], [ 11.869217351258968, 46.758638734937378 ], [ 11.869212576339399, 46.758548856466156 ], [ 11.869277967112222, 46.758547215690683 ], [ 11.869275579606803, 46.758502276456959 ], [ 11.869340970319668, 46.758500635646726 ], [ 11.869343357879314, 46.758545574877878 ], [ 11.869408748640677, 46.758543934027763 ], [ 11.869415911516692, 46.758678751710846 ], [ 11.869350520592642, 46.758680392568664 ], [ 11.869360070957313, 46.758860149483432 ], [ 11.869294679810613, 46.758861790314157 ], [ 11.869297067361881, 46.758906729544286 ], [ 11.869231676155218, 46.758908370340258 ] ] ] } },
{ "type": "Feature", "properties": { "id": 15, "area_m2": 400.0, "n_cells": 16, "vert_extent_m": 40.340087890625, "z_min_m": 1795.93994140625, "z_max_m": 1836.280029296875, "elev_m": 1815.1093826293945, "slope_mean_deg": 57.261778354644775, "slope_max_deg": 64.136199951171875, "slope_std_deg": 3.9746039287170154, "slope05_std_deg": 2.0093715116381645, "ndom_mean_m": 1.3920879364013672, "aspect_mean_deg": 28.181729019188694, "centroid_e": 723259.6875, "centroid_n": 5174773.4375, "geologie": "Permo-jurassische Sedimentabfolge", "geologie_eignung": 0.7, "geologie_klasse": "gemischt_karbonat_werfener", "schutzgebiet": null, "im_schutzgebiet": false, "dist_weg_m": 85.363800852150916, "weg_typ": "path", "score_wall_height": 1.0, "score_slope_compact": 0.841, "score_geology": 0.7, "score_south_aspect": 0.0593, "score_access": 1.0, "score": 0.7671, "profil": "25m", "lat": 46.689248125753466, "lon": 11.91982702542207 }, "geometry": { "type": "Polygon", "coordinates": [ [ [ 11.919758110822016, 46.68941019705624 ], [ 11.919755687205173, 46.689365259282361 ], [ 11.919690382884784, 46.689366927022022 ], [ 11.919687959327771, 46.68932198924508 ], [ 11.91975326359414, 46.689320321508028 ], [ 11.91974356920813, 46.689140570406195 ], [ 11.919808873252611, 46.689138902642341 ], [ 11.919806449616619, 46.689093964868356 ], [ 11.919871753601267, 46.689092297069863 ], [ 11.919874177291277, 46.689137234841247 ], [ 11.919939481324134, 46.689135567002943 ], [ 11.919946752591093, 46.689270380306539 ], [ 11.919881448396181, 46.689272048152674 ], [ 11.919886295828512, 46.689361923691365 ], [ 11.919820991519748, 46.689363591505476 ], [ 11.919823415190614, 46.689408529276747 ], [ 11.919758110822016, 46.68941019705624 ] ] ] } },
{ "type": "Feature", "properties": { "id": 9, "area_m2": 1150.0, "n_cells": 46, "vert_extent_m": 45.469970703125, "z_min_m": 1485.0, "z_max_m": 1530.469970703125, "elev_m": 1504.1093909222147, "slope_mean_deg": 57.132727083952531, "slope_max_deg": 61.488399505615234, "slope_std_deg": 3.2578034394296802, "slope05_std_deg": 1.6176797070580979, "ndom_mean_m": 0.58620486052139942, "aspect_mean_deg": 18.429332751559226, "centroid_e": 723396.79347826086, "centroid_n": 5175210.8152173916, "geologie": "Permo-jurassische Sedimentabfolge", "geologie_eignung": 0.7, "geologie_klasse": "gemischt_karbonat_werfener", "schutzgebiet": null, "im_schutzgebiet": false, "dist_weg_m": 124.24175463417758, "weg_typ": "track", "score_wall_height": 1.0, "score_slope_compact": 0.8697, "score_geology": 0.7, "score_south_aspect": 0.0256, "score_access": 0.9872, "score": 0.7665, "profil": "25m", "lat": 46.693133326873195, "lon": 11.921829904800218 }, "geometry": { "type": "Polygon", "coordinates": [ [ [ 11.921601712713453, 46.693278070337442 ], [ 11.921599287240129, 46.693233132667935 ], [ 11.921533978364922, 46.693234801564806 ], [ 11.921531552951446, 46.69318986389225 ], [ 11.921466244124455, 46.693191532749282 ], [ 11.921461393423012, 46.693101657397605 ], [ 11.921526702141943, 46.693099988545782 ], [ 11.921524276745917, 46.693055050871877 ], [ 11.921981437237362, 46.69304336788489 ], [ 11.921979011468943, 46.692998430228762 ], [ 11.922174937144499, 46.692993422683728 ], [ 11.922177363075008, 46.693038360332039 ], [ 11.922242671675919, 46.693036691073296 ], [ 11.922245097666275, 46.693081628718545 ], [ 11.922179789011333, 46.693083297979896 ], [ 11.922182214953475, 46.693128235627306 ], [ 11.922116906238685, 46.693129904854032 ], [ 11.922119332132615, 46.693174842503588 ], [ 11.921988714577521, 46.693178180850559 ], [ 11.92199114036921, 46.693223118504882 ], [ 11.921860522682785, 46.693226456708153 ], [ 11.921862948372231, 46.693271394367237 ], [ 11.921601712713453, 46.693278070337442 ] ] ] } },
{ "type": "Feature", "properties": { "id": 10, "area_m2": 2175.0, "n_cells": 87, "vert_extent_m": 67.699951171875, "z_min_m": 1634.27001953125, "z_max_m": 1701.969970703125, "elev_m": 1667.8237416936063, "slope_mean_deg": 55.591717994076085, "slope_max_deg": 63.905117034912109, "slope_std_deg": 5.05190113124055, "slope05_std_deg": 1.9578664835499622, "ndom_mean_m": 0.51794679137482036, "aspect_mean_deg": 29.508684194072824, "centroid_e": 723420.96264367818, "centroid_n": 5174988.4051724141, "geologie": "Permo-jurassische Sedimentabfolge", "geologie_eignung": 0.7, "geologie_klasse": "gemischt_karbonat_werfener", "schutzgebiet": null, "im_schutzgebiet": false, "dist_weg_m": 69.220689424828365, "weg_typ": "track", "score_wall_height": 1.0, "score_slope_compact": 0.7979, "score_geology": 0.7, "score_south_aspect": 0.0649, "score_access": 1.0, "score": 0.7593, "profil": "25m", "lat": 46.691126341216886, "lon": 11.922037692481405 }, "geometry": { "type": "Polygon", "coordinates": [ [ [ 11.921698193184129, 46.691430618916243 ], [ 11.921695767787202, 46.691385681236042 ], [ 11.921630461144582, 46.691387350137795 ], [ 11.921625610476232, 46.691297474770849 ], [ 11.9216909170108, 46.69129580587429 ], [ 11.921688491631324, 46.691250868192732 ], [ 11.921753798106051, 46.69124919926157 ], [ 11.921739245627188, 46.690979573178396 ], [ 11.921804551771954, 46.69097790422564 ], [ 11.921802126325144, 46.690932966546136 ], [ 11.921932738489179, 46.690929628534136 ], [ 11.921930312940137, 46.690884690859392 ], [ 11.922060924972859, 46.690881352703698 ], [ 11.922063350629948, 46.690926290373234 ], [ 11.922259268797472, 46.690921282852692 ], [ 11.922261694622446, 46.690966220513957 ], [ 11.922327000720678, 46.690964551263377 ], [ 11.922329426605494, 46.691009488921601 ], [ 11.922394732751931, 46.691007819631189 ], [ 11.92239715869659, 46.691052757286336 ], [ 11.922527771080057, 46.691049418588641 ], [ 11.922530197138581, 46.691094356238132 ], [ 11.922595503375614, 46.691092686830828 ], [ 11.92259792949398, 46.691137624477271 ], [ 11.922532623202924, 46.691139293887169 ], [ 11.922535049273085, 46.691184231535757 ], [ 11.922143211080437, 46.691194247229042 ], [ 11.922145636832269, 46.691239184892801 ], [ 11.922015023946797, 46.691242523164632 ], [ 11.922017449596398, 46.691287460833159 ], [ 11.921952143090913, 46.691289129915845 ], [ 11.921954568692305, 46.691334067586524 ], [ 11.921889262126976, 46.691335736634585 ], [ 11.92189168768016, 46.691380674307418 ], [ 11.921826381054991, 46.691382343320853 ], [ 11.921828806559967, 46.691427280995846 ], [ 11.921698193184129, 46.691430618916243 ] ] ] } },
{ "type": "Feature", "properties": { "id": 12, "area_m2": 2950.0, "n_cells": 118, "vert_extent_m": 85.97998046875, "z_min_m": 1606.2099609375, "z_max_m": 1692.18994140625, "elev_m": 1640.7247511007017, "slope_mean_deg": 56.257841983083949, "slope_max_deg": 65.673072814941406, "slope_std_deg": 3.8542774205099906, "slope05_std_deg": 1.4325429130408724, "ndom_mean_m": 1.9920346534858315, "aspect_mean_deg": 2.3618267995892412, "centroid_e": 723567.26694915257, "centroid_n": 5174951.6737288134, "geologie": "Permo-jurassische Sedimentabfolge", "geologie_eignung": 0.7, "geologie_klasse": "gemischt_karbonat_werfener", "schutzgebiet": null, "im_schutzgebiet": false, "dist_weg_m": 39.330325518816345, "weg_typ": "track", "score_wall_height": 1.0, "score_slope_compact": 0.8458, "score_geology": 0.7, "score_south_aspect": 0.0004, "score_access": 1.0, "score": 0.7592, "profil": "25m", "lat": 46.690747361188194, "lon": 11.923930777751316 }, "geometry": { "type": "Polygon", "coordinates": [ [ [ 11.924353914439207, 46.690957723608911 ], [ 11.92435148687966, 46.690912786031497 ], [ 11.923959651285388, 46.690922807900584 ], [ 11.923957224055803, 46.690877870307084 ], [ 11.923761306342152, 46.690882880731259 ], [ 11.923758879280458, 46.690837943129473 ], [ 11.923628267550303, 46.690841283220905 ], [ 11.923625840602471, 46.690796345613471 ], [ 11.92329931144535, 46.690804695177576 ], [ 11.923296884773455, 46.690759757556656 ], [ 11.923231578978594, 46.690761427355191 ], [ 11.923229152366543, 46.690716489731209 ], [ 11.92329445810738, 46.690714819935266 ], [ 11.923284751501274, 46.690535069445239 ], [ 11.923350057020201, 46.690533399622502 ], [ 11.9233476303292, 46.690488462001476 ], [ 11.923412935788287, 46.690486792144121 ], [ 11.92341536253331, 46.690531729762547 ], [ 11.923545973542067, 46.690528389930954 ], [ 11.923548400400955, 46.690573327543703 ], [ 11.923679011494476, 46.690569987558 ], [ 11.923681438467229, 46.690614925165093 ], [ 11.924073271932244, 46.690604904298922 ], [ 11.924075699234951, 46.690649841889929 ], [ 11.924206310451435, 46.69064650129819 ], [ 11.924208737868009, 46.690691438883519 ], [ 11.92446996044721, 46.690684757242906 ], [ 11.924472388085693, 46.690729694817357 ], [ 11.92460299944841, 46.690726353768483 ], [ 11.924605427200762, 46.690771291337271 ], [ 11.924670732927408, 46.690769620754381 ], [ 11.924673160739605, 46.690814558320113 ], [ 11.924607854958934, 46.690816228905611 ], [ 11.924612710492747, 46.69090610404092 ], [ 11.92454740459821, 46.6909077745944 ], [ 11.924549832319826, 46.69095271216402 ], [ 11.924353914439207, 46.690957723608911 ] ] ] } },
{ "type": "Feature", "properties": { "id": 13, "area_m2": 3275.0, "n_cells": 131, "vert_extent_m": 100.9599609375, "z_min_m": 1673.010009765625, "z_max_m": 1773.969970703125, "elev_m": 1720.5497161632277, "slope_mean_deg": 54.536809761105602, "slope_max_deg": 64.569267272949219, "slope_std_deg": 5.135503245491317, "slope05_std_deg": 1.6815077016371807, "ndom_mean_m": 0.15400590969406011, "aspect_mean_deg": 32.078516749753852, "centroid_e": 723452.73854961828, "centroid_n": 5174903.8263358781, "geologie": "Permo-jurassische Sedimentabfolge", "geologie_eignung": 0.7, "geologie_klasse": "gemischt_karbonat_werfener", "schutzgebiet": null, "im_schutzgebiet": false, "dist_weg_m": 126.01634946070475, "weg_typ": "track", "score_wall_height": 1.0, "score_slope_compact": 0.7946, "score_geology": 0.7, "score_south_aspect": 0.0763, "score_access": 0.9863, "score": 0.759, "profil": "25m", "lat": 46.690355578045803, "lon": 11.922411688976824 }, "geometry": { "type": "Polygon", "coordinates": [ [ [ 11.921988342185113, 46.690748208781031 ], [ 11.921985916605317, 46.69070327110709 ], [ 11.921920610802141, 46.690704940155904 ], [ 11.921910908757212, 46.690525189445182 ], [ 11.921976214344296, 46.690523520406792 ], [ 11.921973788793583, 46.690478582730584 ], [ 11.922300316371638, 46.690470236993271 ], [ 11.922288187354772, 46.69024554867061 ], [ 11.922092271635719, 46.690250556185603 ], [ 11.922089846011863, 46.690205618511904 ], [ 11.922024540814565, 46.690207287606498 ], [ 11.922019689692348, 46.690117412252533 ], [ 11.922084994781599, 46.69011574316314 ], [ 11.922082569175194, 46.690070805488084 ], [ 11.922539704258943, 46.690059120838235 ], [ 11.922537278280204, 46.690014183180985 ], [ 11.922733193066771, 46.690009174923361 ], [ 11.92273561920757, 46.690054112572795 ], [ 11.92280092417881, 46.690052443076532 ], [ 11.922805776585907, 46.690142318368885 ], [ 11.922740471506625, 46.690143987870364 ], [ 11.922757454736583, 46.690458551397555 ], [ 11.922822760194018, 46.690456881877843 ], [ 11.922825186447023, 46.690501819520172 ], [ 11.922759880935565, 46.690503489042499 ], [ 11.922762307140365, 46.690548426686981 ], [ 11.922697001569068, 46.690550096174682 ], [ 11.922699427725663, 46.690595033821324 ], [ 11.922634122094525, 46.690596703274416 ], [ 11.922636548202917, 46.690641640923204 ], [ 11.922571242511939, 46.69064331034167 ], [ 11.922573668572124, 46.690688247992618 ], [ 11.922508362821304, 46.690689917376467 ], [ 11.922505936815142, 46.690644979722904 ], [ 11.922440631112527, 46.690646649066927 ], [ 11.922438205166204, 46.690601711410309 ], [ 11.92211167683598, 46.690610057558963 ], [ 11.922116528194216, 46.690699932897793 ], [ 11.922051222402676, 46.690701602021043 ], [ 11.922053648036496, 46.690746539692398 ], [ 11.921988342185113, 46.690748208781031 ] ] ] } },
{ "type": "Feature", "properties": { "id": 6, "area_m2": 650.0, "n_cells": 26, "vert_extent_m": 39.469970703125, "z_min_m": 1513.06005859375, "z_max_m": 1552.530029296875, "elev_m": 1531.8142277644231, "slope_mean_deg": 49.724581938523514, "slope_max_deg": 54.111530303955078, "slope_std_deg": 3.1757401162573387, "slope05_std_deg": 1.6096029109679735, "ndom_mean_m": 0.42587397648737979, "aspect_mean_deg": 10.535595368993839, "centroid_e": 725877.98076923075, "centroid_n": 5175414.711538462, "geologie": "Permo-jurassische Sedimentabfolge", "geologie_eignung": 0.7, "geologie_klasse": "gemischt_karbonat_werfener", "schutzgebiet": "Fanes-Sennes-Prags", "im_schutzgebiet": true, "dist_weg_m": 223.42698448343529, "weg_typ": "track", "score_wall_height": 0.9867, "score_slope_compact": 0.873, "score_geology": 0.7, "score_south_aspect": 0.0084, "score_access": 0.935, "score": 0.7547, "profil": "25m", "lat": 46.69413297222976, "lon": 11.954337842860491 }, "geometry": { "type": "Polygon", "coordinates": [ [ [ 11.954225386651171, 46.694284723391256 ], [ 11.954222934031703, 46.694239787044793 ], [ 11.95415762585422, 46.694241474588686 ], [ 11.954155173294662, 46.694196538239126 ], [ 11.954220481418119, 46.694194850697876 ], [ 11.954210671022592, 46.69401510530566 ], [ 11.954275978924059, 46.6940134177377 ], [ 11.954273526285856, 46.693968481391146 ], [ 11.954404141963094, 46.693965106148845 ], [ 11.954406594709351, 46.694010042490127 ], [ 11.954471902593173, 46.694008354810506 ], [ 11.954484166682818, 46.694233036496961 ], [ 11.954418858528863, 46.694234724189762 ], [ 11.954421311310412, 46.694279660528331 ], [ 11.954225386651171, 46.694284723391256 ] ] ] } },
{ "type": "Feature", "properties": { "id": 11, "area_m2": 1975.0, "n_cells": 79, "vert_extent_m": 55.5399169921875, "z_min_m": 1557.56005859375, "z_max_m": 1613.0999755859375, "elev_m": 1586.0928831462618, "slope_mean_deg": 54.530774756322934, "slope_max_deg": 63.894565582275391, "slope_std_deg": 4.4354326988006241, "slope05_std_deg": 1.97409857677508, "ndom_mean_m": 1.8139134660551819, "aspect_mean_deg": 355.87822867574084, "centroid_e": 722663.97151898732, "centroid_n": 5174979.3196202535, "geologie": "Permo-jurassische Sedimentabfolge", "geologie_eignung": 0.7, "geologie_klasse": "gemischt_karbonat_werfener", "schutzgebiet": null, "im_schutzgebiet": false, "dist_weg_m": 132.09457307402118, "weg_typ": "path", "score_wall_height": 1.0, "score_slope_compact": 0.8226, "score_geology": 0.7, "score_south_aspect": 0.0013, "score_access": 0.9831, "score": 0.753, "profil": "25m", "lat": 46.691296957208216, "lon": 11.912145974090798 }, "geometry": { "type": "Polygon", "coordinates": [ [ [ 11.912284298611725, 46.691490805631858 ], [ 11.912281881017789, 46.691445867575361 ], [ 11.911890037354457, 46.691455848200768 ], [ 11.911887620090479, 46.691410910128226 ], [ 11.911822312846997, 46.691412573432913 ], [ 11.911819895642845, 46.691367635357324 ], [ 11.911754588447588, 46.69136929862217 ], [ 11.911744919905054, 46.69118954630494 ], [ 11.911810226884201, 46.691187883050468 ], [ 11.911807809709034, 46.691142944972626 ], [ 11.911873116628358, 46.691141281683535 ], [ 11.911870699404959, 46.691096343607839 ], [ 11.912066619966073, 46.691091353524968 ], [ 11.91206903735155, 46.691136291592876 ], [ 11.91213434424769, 46.69113462815487 ], [ 11.912136761692988, 46.691179566219724 ], [ 11.912463296356838, 46.691171248458289 ], [ 11.912465714078067, 46.691216186509706 ], [ 11.912531021047473, 46.691214522843147 ], [ 11.912533438828524, 46.69125946089153 ], [ 11.912598745846156, 46.691257797185145 ], [ 11.912603581533711, 46.691347673275352 ], [ 11.912538274408027, 46.691349336986939 ], [ 11.912540692206475, 46.691394275033957 ], [ 11.912475385020965, 46.691395938710912 ], [ 11.912477802771186, 46.691440876760076 ], [ 11.912412495525851, 46.691442540402399 ], [ 11.912414913227842, 46.691487478453709 ], [ 11.912284298611725, 46.691490805631858 ] ] ] } },
{ "type": "Feature", "properties": { "id": 18, "area_m2": 875.0, "n_cells": 35, "vert_extent_m": 32.340087890625, "z_min_m": 1616.0899658203125, "z_max_m": 1648.4300537109375, "elev_m": 1631.6236432756696, "slope_mean_deg": 56.199191175188339, "slope_max_deg": 64.301689147949219, "slope_std_deg": 3.451688643607552, "slope05_std_deg": 2.3180576835359847, "ndom_mean_m": -0.11946759905133929, "aspect_mean_deg": 75.87886278216709, "centroid_e": 724936.82142857148, "centroid_n": 5173518.8928571427, "geologie": "Triassische Vulkanite und Vulkanoklastite", "geologie_eignung": 0.65, "geologie_klasse": "mittel", "schutzgebiet": null, "im_schutzgebiet": false, "dist_weg_m": 67.201372453287192, "weg_typ": "track", "score_wall_height": 0.8085, "score_slope_compact": 0.8619, "score_geology": 0.65, "score_south_aspect": 0.378, "score_access": 1.0, "score": 0.7421, "profil": "25m", "lat": 46.67741152574169, "lon": 11.94111898563961 }, "geometry": { "type": "Polygon", "coordinates": [ [ [ 11.941026942679166, 46.6776601067385 ], [ 11.941024502424128, 46.677615169727162 ], [ 11.940959213503412, 46.677616849283609 ], [ 11.940947012585884, 46.677392164207077 ], [ 11.941012301236691, 46.677390484663746 ], [ 11.941007420802674, 46.677300610635207 ], [ 11.941072709339666, 46.677298931059894 ], [ 11.941070269077452, 46.677253994047568 ], [ 11.941135557554617, 46.677252314437673 ], [ 11.941133117244272, 46.677207377427521 ], [ 11.941198405661604, 46.677205697783052 ], [ 11.941195965303132, 46.677160760775052 ], [ 11.941261253660631, 46.677159081095994 ], [ 11.941263694073085, 46.677204018101371 ], [ 11.941328982478712, 46.677202338382472 ], [ 11.941333863429135, 46.677292212386604 ], [ 11.941268574915545, 46.67729389211074 ], [ 11.941271015345551, 46.677338829114746 ], [ 11.941205726772131, 46.677340508804299 ], [ 11.941217928740027, 46.677565193830659 ], [ 11.94115263989085, 46.677566873496119 ], [ 11.941155080248, 46.677611810502647 ], [ 11.941089791338991, 46.67761349013351 ], [ 11.94109223164801, 46.677658427142205 ], [ 11.941026942679166, 46.6776601067385 ] ] ] } },
{ "type": "Feature", "properties": { "id": 3, "area_m2": 400.0, "n_cells": 16, "vert_extent_m": 34.0799560546875, "z_min_m": 1448.8599853515625, "z_max_m": 1482.93994140625, "elev_m": 1465.705810546875, "slope_mean_deg": 54.744504690170288, "slope_max_deg": 63.959724426269531, "slope_std_deg": 5.3943971129607631, "slope05_std_deg": 3.341281721368432, "ndom_mean_m": 1.8076438903808594, "aspect_mean_deg": 286.82462519283342, "centroid_e": 723991.25, "centroid_n": 5182319.375, "geologie": "Niedriggradig metamorphes varisziches Grundgebirge: Brixen Quartzphyllit", "geologie_eignung": 0.65, "geologie_klasse": "mittel", "schutzgebiet": null, "im_schutzgebiet": false, "dist_weg_m": 34.191375646445657, "weg_typ": "track", "score_wall_height": 0.852, "score_slope_compact": 0.7842, "score_geology": 0.65, "score_south_aspect": 0.3553, "score_access": 1.0, "score": 0.7383, "profil": "25m", "lat": 46.7568221413336, "lon": 11.933058120406368 }, "geometry": { "type": "Polygon", "coordinates": [ [ [ 11.932965838658202, 46.756931381764282 ], [ 11.932963398341832, 46.756886445052992 ], [ 11.932898013266644, 46.756888122170373 ], [ 11.932893132759897, 46.756798248741205 ], [ 11.932958517726657, 46.75679657162906 ], [ 11.932956077427859, 46.756751634916412 ], [ 11.933086847235387, 46.75674828058542 ], [ 11.933084406834022, 46.756703343877561 ], [ 11.933149791674786, 46.756701666658707 ], [ 11.933152232130364, 46.756746603363958 ], [ 11.933217617019485, 46.756744926105185 ], [ 11.933222498056637, 46.756834799509079 ], [ 11.933157113059092, 46.756836476773096 ], [ 11.933159553532244, 46.756881413476968 ], [ 11.93309416847463, 46.756883090706289 ], [ 11.933096608899428, 46.75692802741235 ], [ 11.932965838658202, 46.756931381764282 ] ] ] } },
{ "type": "Feature", "properties": { "id": 4, "area_m2": 600.0, "n_cells": 24, "vert_extent_m": 28.72998046875, "z_min_m": 1229.4000244140625, "z_max_m": 1258.1300048828125, "elev_m": 1243.2254180908203, "slope_mean_deg": 51.146702130635582, "slope_max_deg": 54.19854736328125, "slope_std_deg": 2.0744349524054497, "slope05_std_deg": 1.2924429488678773, "ndom_mean_m": 0.21190897623697916, "aspect_mean_deg": 34.236436246108269, "centroid_e": 720302.91666666663, "centroid_n": 5178397.916666667, "geologie": "Niedriggradig metamorphes varisziches Grundgebirge: Brixen Quartzphyllit", "geologie_eignung": 0.65, "geologie_klasse": "mittel", "schutzgebiet": null, "im_schutzgebiet": false, "dist_weg_m": 7.7318720953273123, "weg_typ": "footway", "score_wall_height": 0.7182, "score_slope_compact": 0.917, "score_geology": 0.65, "score_south_aspect": 0.0866, "score_access": 1.0, "score": 0.6778, "profil": "25m", "lat": 46.722804069235522, "lon": 11.882943372119845 }, "geometry": { "type": "Polygon", "coordinates": [ [ [ 11.882829958432497, 46.722926927135617 ], [ 11.882827562641257, 46.722881988155891 ], [ 11.882762215751338, 46.722883635718198 ], [ 11.88275982001997, 46.722838696735444 ], [ 11.882694473178425, 46.722840344257904 ], [ 11.882692077506929, 46.722795405272137 ], [ 11.882757424294351, 46.722793757752257 ], [ 11.882755028574477, 46.722748818768615 ], [ 11.882951068739883, 46.722743875993054 ], [ 11.882948672863389, 46.722698937016681 ], [ 11.883014019519573, 46.722697289352851 ], [ 11.883011623594705, 46.722652350378588 ], [ 11.883076970191016, 46.72265070268007 ], [ 11.883079366170007, 46.722695641651754 ], [ 11.883144712814694, 46.722693993913381 ], [ 11.883149504898165, 46.72278387185024 ], [ 11.883084158145234, 46.722785519593756 ], [ 11.883088950143456, 46.722875397533976 ], [ 11.883023603276531, 46.722877045245369 ], [ 11.883025999230139, 46.722921984217365 ], [ 11.882829958432497, 46.722926927135617 ] ] ] } },
{ "type": "Feature", "properties": { "id": 14, "area_m2": 350.0, "n_cells": 14, "vert_extent_m": 21.320068359375, "z_min_m": 1288.699951171875, "z_max_m": 1310.02001953125, "elev_m": 1299.5537283761162, "slope_mean_deg": 54.118914740426199, "slope_max_deg": 57.285400390625, "slope_std_deg": 1.9994279169867826, "slope05_std_deg": 1.2719628640583582, "ndom_mean_m": 1.0451681954520089, "aspect_mean_deg": 82.524134691703082, "centroid_e": 724266.25, "centroid_n": 5174826.25, "geologie": "Permo-jurassische Sedimentabfolge", "geologie_eignung": 0.7, "geologie_klasse": "gemischt_karbonat_werfener", "schutzgebiet": null, "im_schutzgebiet": false, "dist_weg_m": 126.22041249586511, "weg_typ": "path", "score_wall_height": 0.533, "score_slope_compact": 0.92, "score_geology": 0.7, "score_south_aspect": 0.4349, "score_access": 0.9862, "score": 0.6744, "profil": "25m", "lat": 46.689386272982176, "lon": 11.932999168759371 }, "geometry": { "type": "Polygon", "coordinates": [ [ [ 11.932973820716642, 46.689521922364385 ], [ 11.9329713861298, 46.689476985122035 ], [ 11.932906082445893, 46.689478660406984 ], [ 11.932896344372965, 46.689298911422604 ], [ 11.932961647840802, 46.689297236148136 ], [ 11.932959213283148, 46.689252298903526 ], [ 11.933024516691134, 46.689250623594432 ], [ 11.933026951302805, 46.689295560836442 ], [ 11.933092254758966, 46.689293885487508 ], [ 11.933101993480102, 46.689473634440503 ], [ 11.933036689807869, 46.689475309799882 ], [ 11.933039124448731, 46.68952024703961 ], [ 11.932973820716642, 46.689521922364385 ] ] ] } },
{ "type": "Feature", "properties": { "id": 17, "area_m2": 325.0, "n_cells": 13, "vert_extent_m": 30.27001953125, "z_min_m": 1373.3900146484375, "z_max_m": 1403.6600341796875, "elev_m": 1388.5642465444712, "slope_mean_deg": 51.980115156907303, "slope_max_deg": 58.008937835693359, "slope_std_deg": 3.9219119915484573, "slope05_std_deg": 1.5232584384771495, "ndom_mean_m": 0.516082763671875, "aspect_mean_deg": 10.940135244976926, "centroid_e": 725151.63461538462, "centroid_n": 5174407.596153846, "geologie": "Triassische Vulkanite und Vulkanoklastite", "geologie_eignung": 0.65, "geologie_klasse": "mittel", "schutzgebiet": null, "im_schutzgebiet": false, "dist_weg_m": 75.861332857582937, "weg_typ": "track", "score_wall_height": 0.7568, "score_slope_compact": 0.8431, "score_geology": 0.65, "score_south_aspect": 0.0091, "score_access": 1.0, "score": 0.6649, "profil": "25m", "lat": 46.685326436840676, "lon": 11.944358201152509 }, "geometry": { "type": "Polygon", "coordinates": [ [ [ 11.944392500426549, 46.685448437423993 ], [ 11.944390056717159, 46.685403500609965 ], [ 11.944324758611238, 46.685405182299988 ], [ 11.944322314961711, 46.685360245482869 ], [ 11.944257016903935, 46.685361927133052 ], [ 11.944254573314272, 46.685316990312863 ], [ 11.944189275304637, 46.685318671923191 ], [ 11.944186831774836, 46.685273735099919 ], [ 11.944252129730467, 46.685272053492206 ], [ 11.944249686152522, 46.685227116671115 ], [ 11.944380281938198, 46.685223753349277 ], [ 11.94438272562415, 46.685268690165131 ], [ 11.944448023562201, 46.68526700844577 ], [ 11.944452911059686, 46.685356882070863 ], [ 11.944518209099884, 46.685355200309033 ], [ 11.94452065291142, 46.685400137118265 ], [ 11.944455354817219, 46.685401818882724 ], [ 11.944457798580613, 46.68544675569413 ], [ 11.944392500426549, 46.685448437423993 ] ] ] } },
{ "type": "Feature", "properties": { "id": 8, "area_m2": 350.0, "n_cells": 14, "vert_extent_m": 19.5499267578125, "z_min_m": 1457.81005859375, "z_max_m": 1477.3599853515625, "elev_m": 1468.2142857142858, "slope_mean_deg": 52.017553056989399, "slope_max_deg": 54.338077545166016, "slope_std_deg": 1.3458911857242979, "slope05_std_deg": 1.371674922960145, "ndom_mean_m": -0.4315098353794643, "aspect_mean_deg": 50.087044796785534, "centroid_e": 723560.17857142852, "centroid_n": 5175226.25, "geologie": "Permo-jurassische Sedimentabfolge", "geologie_eignung": 0.7, "geologie_klasse": "gemischt_karbonat_werfener", "schutzgebiet": null, "im_schutzgebiet": false, "dist_weg_m": 203.50538099865918, "weg_typ": "track", "score_wall_height": 0.4887, "score_slope_compact": 0.9462, "score_geology": 0.7, "score_south_aspect": 0.1792, "score_access": 0.9455, "score": 0.6217, "profil": "25m", "lat": 46.6932174879435, "lon": 11.923971489924142 }, "geometry": { "type": "Polygon", "coordinates": [ [ [ 11.92389480369931, 46.693354448133583 ], [ 11.923892376317466, 46.693309510556638 ], [ 11.923827067483835, 46.693311180764354 ], [ 11.923822212845671, 46.693221305603906 ], [ 11.923887521571245, 46.69321963540142 ], [ 11.923885094206865, 46.69317469782311 ], [ 11.923950402872586, 46.693173027585992 ], [ 11.923947975459999, 46.693128090009864 ], [ 11.92401328406587, 46.693126419738121 ], [ 11.924010856605074, 46.693081482164146 ], [ 11.924076165151094, 46.693079811857785 ], [ 11.92407859266592, 46.69312474942916 ], [ 11.924143901260146, 46.693123079082959 ], [ 11.924146328834823, 46.693168016651285 ], [ 11.924081020186565, 46.693169687000079 ], [ 11.924083447713036, 46.693214624570565 ], [ 11.924018139004925, 46.693216294884735 ], [ 11.924022993967268, 46.693306170029544 ], [ 11.923957685145279, 46.693307840311711 ], [ 11.923960112581153, 46.693352777886041 ], [ 11.92389480369931, 46.693354448133583 ] ] ] } },
{ "type": "Feature", "properties": { "id": 20, "area_m2": 275.0, "n_cells": 11, "vert_extent_m": 21.7301025390625, "z_min_m": 1775.93994140625, "z_max_m": 1797.6700439453125, "elev_m": 1786.977949662642, "slope_mean_deg": 54.800793734463781, "slope_max_deg": 59.329185485839844, "slope_std_deg": 2.4054886354201712, "slope05_std_deg": 0.98311581394889136, "ndom_mean_m": 4.5029879483309658, "aspect_mean_deg": 352.23371430971116, "centroid_e": 719056.25, "centroid_n": 5173078.75, "geologie": "Permo-jurassische Sedimentabfolge", "geologie_eignung": 0.7, "geologie_klasse": "gemischt_karbonat_werfener", "schutzgebiet": null, "im_schutzgebiet": false, "dist_weg_m": 83.088064720749884, "weg_typ": "track", "score_wall_height": 0.5433, "score_slope_compact": 0.9038, "score_geology": 0.7, "score_south_aspect": 0.0046, "score_access": 1.0, "score": 0.6116, "profil": "25m", "lat": 46.675405209153148, "lon": 11.864118834604355 }, "geometry": { "type": "Polygon", "coordinates": [ [ [ 11.864024462891161, 46.675475072704486 ], [ 11.864022086654861, 46.675430132609229 ], [ 11.863956795910406, 46.67543176816951 ], [ 11.863954419733792, 46.675386828071233 ], [ 11.864019710424257, 46.675385192513502 ], [ 11.864017334199353, 46.675340252417328 ], [ 11.864213206074597, 46.675335345528545 ], [ 11.864215582461471, 46.675380285617059 ], [ 11.864280873129145, 46.675378649910485 ], [ 11.864283249575708, 46.675423589996001 ], [ 11.864217958854045, 46.675425225705126 ], [ 11.864220335252313, 46.675470165792731 ], [ 11.864024462891161, 46.675475072704486 ] ] ] } }
]
}
