{
"type": "FeatureCollection",
"name": "felskandidaten_05m",
"crs": { "type": "name", "properties": { "name": "urn:ogc:def:crs:OGC:1.3:CRS84" } },
"features": [
{ "type": "Feature", "properties": { "id": 23, "area_m2": 140.0, "n_cells": 35, "vert_extent_m": 37.81103515625, "z_min_m": 1405.199951171875, "z_max_m": 1443.010986328125, "elev_m": 1425.4843191964285, "slope_mean_deg": 64.26901125226702, "slope_max_deg": 69.631019592285156, "slope_std_deg": 3.4755169820018028, "slope05_std_deg": 3.9565746145589009, "ndom_mean_m": 1.3295547485351562, "aspect_mean_deg": 159.54159309697192, "centroid_e": 719182.46428571432, "centroid_n": 5176218.2642857144, "geologie": "Niedriggradig metamorphes varisziches Grundgebirge: Brixen Quartzphyllit", "geologie_eignung": 0.65, "geologie_klasse": "mittel", "schutzgebiet": null, "im_schutzgebiet": false, "dist_weg_m": 87.103385944298054, "weg_typ": "unclassified", "score_wall_height": 0.9453, "score_slope_compact": 0.861, "score_geology": 0.65, "score_south_aspect": 0.9685, "score_access": 1.0, "score": 0.8783, "profil": "05m", "lat": 46.703581792568514, "lon": 11.86726102989134 }, "geometry": { "type": "Polygon", "coordinates": [ [ [ 11.867229609318271, 46.703658951030356 ], [ 11.867228656823583, 46.703640975131592 ], [ 11.867202526998689, 46.703641630392859 ], [ 11.867200622029358, 46.703605678594315 ], [ 11.867174492220855, 46.703606333848803 ], [ 11.867171634799663, 46.7035524061492 ], [ 11.867197764582212, 46.70355175089594 ], [ 11.867196812101659, 46.703533774996338 ], [ 11.867327460957442, 46.70353049864265 ], [ 11.867326508434546, 46.703512522745015 ], [ 11.86735263819431, 46.703511867456811 ], [ 11.867353590725857, 46.703529843354033 ], [ 11.867379720493359, 46.703529188059449 ], [ 11.867380673034472, 46.703547163956188 ], [ 11.867354543258321, 46.703547819251177 ], [ 11.867355495791694, 46.703565795148251 ], [ 11.867303236219344, 46.703567105721156 ], [ 11.867307046292774, 46.703639009312013 ], [ 11.867280916470625, 46.703639664591165 ], [ 11.867281868982616, 46.703657640489105 ], [ 11.867229609318271, 46.703658951030356 ] ] ] } },
{ "type": "Feature", "properties": { "id": 13, "area_m2": 400.0, "n_cells": 100, "vert_extent_m": 32.17999267578125, "z_min_m": 1001.9650268554688, "z_max_m": 1034.14501953125, "elev_m": 1018.3812609863281, "slope_mean_deg": 68.224641799926758, "slope_max_deg": 75.291969299316406, "slope_std_deg": 3.7934184612377306, "slope05_std_deg": 3.5122241646051409, "ndom_mean_m": 1.3183946990966797, "aspect_mean_deg": 221.68605199314479, "centroid_e": 720487.49, "centroid_n": 5178926.11, "geologie": "Niedriggradig metamorphes varisziches Grundgebirge: Brixen Quartzphyllit", "geologie_eignung": 0.65, "geologie_klasse": "mittel", "schutzgebiet": null, "im_schutzgebiet": false, "dist_weg_m": 11.901776505790508, "weg_typ": "service", "score_wall_height": 0.8045, "score_slope_compact": 0.8483, "score_geology": 0.65, "score_south_aspect": 0.8734, "score_access": 1.0, "score": 0.8122, "profil": "05m", "lat": 46.727490502539354, "lon": 11.885608963557241 }, "geometry": { "type": "Polygon", "coordinates": [ [ [ 11.885411216131679, 46.7276452507908 ], [ 11.885410256799135, 46.727627275254704 ], [ 11.885384115811155, 46.727627934924911 ], [ 11.885383156488194, 46.727609959388332 ], [ 11.885409297467513, 46.727609299718537 ], [ 11.885406419478173, 46.727555373109602 ], [ 11.885432560430585, 46.727554713435083 ], [ 11.885431601093984, 46.727536737899044 ], [ 11.885510023919712, 46.727534758840932 ], [ 11.885507145837481, 46.727480832236083 ], [ 11.885533286751562, 46.727480172539352 ], [ 11.885532327383997, 46.72746219700467 ], [ 11.885558468288497, 46.727461537302389 ], [ 11.885557508913191, 46.727443561768041 ], [ 11.885583649808108, 46.727442902060211 ], [ 11.885582690425062, 46.727424926526204 ], [ 11.885608831310398, 46.727424266812811 ], [ 11.885607871919609, 46.727406291279145 ], [ 11.885634012795361, 46.72740563156021 ], [ 11.885633053396832, 46.727387656026885 ], [ 11.885659194263003, 46.727386996302386 ], [ 11.885658234856731, 46.727369020769409 ], [ 11.885762798277556, 46.727366381813454 ], [ 11.88576183883756, 46.72734840628204 ], [ 11.885787979681803, 46.727347746528558 ], [ 11.885788939130462, 46.727365722059552 ], [ 11.885815079982445, 46.727365062299683 ], [ 11.885816998899847, 46.727401013360634 ], [ 11.885843139768234, 46.727400353593978 ], [ 11.885844099236976, 46.727418329123935 ], [ 11.885817958359928, 46.72741898889101 ], [ 11.885818917820933, 46.727436964421301 ], [ 11.88576663604675, 46.727438283938362 ], [ 11.88576759549135, 46.727456259469413 ], [ 11.885715313696164, 46.727457578963445 ], [ 11.885717232553478, 46.727493530026969 ], [ 11.885691091637179, 46.727494189765856 ], [ 11.885692051058557, 46.727512165297931 ], [ 11.885665910132674, 46.727512825031269 ], [ 11.885666869546311, 46.727530800563677 ], [ 11.885614587674462, 46.727532120013279 ], [ 11.885615547071696, 46.727550095546448 ], [ 11.885589406125728, 46.727550755262719 ], [ 11.885590365515219, 46.727568730796207 ], [ 11.885538083603198, 46.727570050211682 ], [ 11.885540002350298, 46.727606001280122 ], [ 11.885513861375584, 46.727606660979731 ], [ 11.885514820741852, 46.727624636514257 ], [ 11.885488679757556, 46.727625296208316 ], [ 11.885489639116082, 46.727643271743176 ], [ 11.885411216131679, 46.7276452507908 ] ] ] } },
{ "type": "Feature", "properties": { "id": 8, "area_m2": 104.0, "n_cells": 26, "vert_extent_m": 21.97100830078125, "z_min_m": 968.02398681640625, "z_max_m": 989.9949951171875, "elev_m": 981.06527475210339, "slope_mean_deg": 63.188534369835487, "slope_max_deg": 69.075408935546875, "slope_std_deg": 3.0627075423801124, "slope05_std_deg": 3.5564019359075107, "ndom_mean_m": 1.5107460021972656, "aspect_mean_deg": 213.61284567415794, "centroid_e": 719720.05769230775, "centroid_n": 5179927.211538462, "geologie": "Niedriggradig metamorphes varisziches Grundgebirge: Brixen Quartzphyllit", "geologie_eignung": 0.65, "geologie_klasse": "mittel", "schutzgebiet": null, "im_schutzgebiet": false, "dist_weg_m": 12.959909857533241, "weg_typ": "service", "score_wall_height": 0.5493, "score_slope_compact": 0.8775, "score_geology": 0.65, "score_south_aspect": 0.9164, "score_access": 1.0, "score": 0.7352, "profil": "05m", "lat": 46.736740944628195, "lon": 11.876056880198252 }, "geometry": { "type": "Polygon", "coordinates": [ [ [ 11.875978026256, 46.736810773072264 ], [ 11.87597706975113, 46.736792797415923 ], [ 11.875950924117282, 46.736793455029236 ], [ 11.875949967621997, 46.736775479372412 ], [ 11.875976113247178, 46.736774821759496 ], [ 11.875975156744143, 46.73675684610302 ], [ 11.876001302359741, 46.736756188484563 ], [ 11.876000345848958, 46.736738212828421 ], [ 11.876026491454972, 46.736737555204414 ], [ 11.876025534936442, 46.736719579548598 ], [ 11.87605168053287, 46.736718921919035 ], [ 11.876049767481229, 46.73668297060803 ], [ 11.876075913059408, 46.736682312973315 ], [ 11.876074956526299, 46.736664337318118 ], [ 11.876101102094891, 46.736663679677847 ], [ 11.876102058636667, 46.736681655332639 ], [ 11.876128204213007, 46.736680997685987 ], [ 11.876130117316643, 46.73671694899452 ], [ 11.876156262909399, 46.736716291341089 ], [ 11.876157219471263, 46.736734266994837 ], [ 11.876131073869841, 46.736734924648687 ], [ 11.876132030423955, 46.736752900302768 ], [ 11.876053593588182, 46.736754873229749 ], [ 11.876055506647164, 46.736790824540186 ], [ 11.876029361016073, 46.736791482171398 ], [ 11.876030317538275, 46.736809457826908 ], [ 11.875978026256, 46.736810773072264 ] ] ] } },
{ "type": "Feature", "properties": { "id": 22, "area_m2": 56.0, "n_cells": 14, "vert_extent_m": 22.8900146484375, "z_min_m": 1437.0909423828125, "z_max_m": 1459.98095703125, "elev_m": 1447.0399605887276, "slope_mean_deg": 68.193415505545474, "slope_max_deg": 73.583274841308594, "slope_std_deg": 5.1479693854203292, "slope05_std_deg": 5.5458786572728842, "ndom_mean_m": 1.8346851893833704, "aspect_mean_deg": 157.46680523568384, "centroid_e": 719192.32142857148, "centroid_n": 5176248.4642857146, "geologie": "Niedriggradig metamorphes varisziches Grundgebirge: Brixen Quartzphyllit", "geologie_eignung": 0.65, "geologie_klasse": "mittel", "schutzgebiet": null, "im_schutzgebiet": false, "dist_weg_m": 82.483778073834301, "weg_typ": "unclassified", "score_wall_height": 0.5723, "score_slope_compact": 0.7941, "score_geology": 0.65, "score_south_aspect": 0.9618, "score_access": 1.0, "score": 0.7334, "profil": "05m", "lat": 46.703849998974491, "lon": 11.86740419598547 }, "geometry": { "type": "Polygon", "coordinates": [ [ [ 11.86737264154873, 46.703889361283331 ], [ 11.867371688998904, 46.703871385387551 ], [ 11.867345559066115, 46.703872040683947 ], [ 11.867343653986506, 46.703836088891343 ], [ 11.867369783901994, 46.703835433595771 ], [ 11.867368831354909, 46.703817457699785 ], [ 11.867447221069936, 46.703815491778528 ], [ 11.867448173642975, 46.703833467673299 ], [ 11.867474303554806, 46.70383281235388 ], [ 11.867475256137411, 46.703850788248175 ], [ 11.867449126216927, 46.703851443567991 ], [ 11.867450078791792, 46.70386941946262 ], [ 11.867423948861743, 46.703870074776901 ], [ 11.867424901428873, 46.703888050671857 ], [ 11.86737264154873, 46.703889361283331 ] ] ] } },
{ "type": "Feature", "properties": { "id": 1, "area_m2": 44.0, "n_cells": 11, "vert_extent_m": 21.40997314453125, "z_min_m": 861.95501708984375, "z_max_m": 883.364990234375, "elev_m": 873.46148126775563, "slope_mean_deg": 71.024812871759593, "slope_max_deg": 75.456695556640625, "slope_std_deg": 3.5849890005016669, "slope05_std_deg": 8.3828318660909478, "ndom_mean_m": 2.3400004993785513, "aspect_mean_deg": 210.1767566639451, "centroid_e": 718660.75, "centroid_n": 5182867.75, "geologie": "Niedriggradig metamorphes varisziches Grundgebirge: Brixen Quartzphyllit", "geologie_eignung": 0.65, "geologie_klasse": "mittel", "schutzgebiet": null, "im_schutzgebiet": false, "dist_weg_m": 10.482140165877585, "weg_typ": "primary", "score_wall_height": 0.5352, "score_slope_compact": 0.8566, "score_geology": 0.65, "score_south_aspect": 0.9322, "score_access": 1.0, "score": 0.7285, "profil": "05m", "lat": 46.76351772052665, "lon": 11.863609225224803 }, "geometry": { "type": "Polygon", "coordinates": [ [ [ 11.86357141686555, 46.763545666783529 ], [ 11.863570463594126, 46.76352769101608 ], [ 11.863544304744611, 46.763528346079269 ], [ 11.863543351482782, 46.763510370311337 ], [ 11.863569510323616, 46.763509715248553 ], [ 11.863568557054021, 46.763491739480962 ], [ 11.863647033544998, 46.763489774258012 ], [ 11.863647986840627, 46.763507750024374 ], [ 11.863674145677802, 46.763507094937701 ], [ 11.863675098983027, 46.763525070703587 ], [ 11.863648940137175, 46.763525725790672 ], [ 11.863649893434637, 46.763543701556898 ], [ 11.86357141686555, 46.763545666783529 ] ] ] } },
{ "type": "Feature", "properties": { "id": 9, "area_m2": 84.0, "n_cells": 21, "vert_extent_m": 20.469970703125, "z_min_m": 967.56402587890625, "z_max_m": 988.03399658203125, "elev_m": 977.45006161644346, "slope_mean_deg": 65.099959055582687, "slope_max_deg": 69.769081115722656, "slope_std_deg": 2.2811634128080356, "slope05_std_deg": 3.3627019780022755, "ndom_mean_m": 1.3195820762997581, "aspect_mean_deg": 214.31906119569709, "centroid_e": 719745.13095238095, "centroid_n": 5179908.3214285718, "geologie": "Niedriggradig metamorphes varisziches Grundgebirge: Brixen Quartzphyllit", "geologie_eignung": 0.65, "geologie_klasse": "mittel", "schutzgebiet": null, "im_schutzgebiet": false, "dist_weg_m": 13.123894249261621, "weg_typ": "service", "score_wall_height": 0.5117, "score_slope_compact": 0.9088, "score_geology": 0.65, "score_south_aspect": 0.913, "score_access": 1.0, "score": 0.7278, "profil": "05m", "lat": 46.736562918639123, "lon": 11.876375622465718 }, "geometry": { "type": "Polygon", "coordinates": [ [ [ 11.876307396782771, 46.73660449138594 ], [ 11.876306440175339, 46.736586515734167 ], [ 11.876280294648756, 46.736587173420524 ], [ 11.876279338050907, 46.73656919776824 ], [ 11.876305483568824, 46.736568540082288 ], [ 11.876304526963228, 46.73655056443036 ], [ 11.876356817978971, 46.736549249041389 ], [ 11.876355861356961, 46.736531273390192 ], [ 11.876382006854788, 46.736530615687165 ], [ 11.876381050225032, 46.736512640036324 ], [ 11.876433341200601, 46.736511324613197 ], [ 11.876434297847691, 46.736529300263221 ], [ 11.876460443342767, 46.736528642542304 ], [ 11.876461399999441, 46.736546618191831 ], [ 11.876435254495702, 46.736547275913175 ], [ 11.876437167794476, 46.736583227212861 ], [ 11.876411022272483, 46.736583884929047 ], [ 11.876411978914582, 46.736601860579206 ], [ 11.876307396782771, 46.73660449138594 ] ] ] } },
{ "type": "Feature", "properties": { "id": 12, "area_m2": 712.0, "n_cells": 178, "vert_extent_m": 41.280029296875, "z_min_m": 982.43499755859375, "z_max_m": 1023.7150268554688, "elev_m": 1002.046243046107, "slope_mean_deg": 54.72222515572323, "slope_max_deg": 79.565719604492188, "slope_std_deg": 19.511684941268491, "slope05_std_deg": 7.377038611120053, "ndom_mean_m": 1.5959759187162592, "aspect_mean_deg": 258.91305095484847, "centroid_e": 720245.26685393264, "centroid_n": 5179230.3567415727, "geologie": "Niedriggradig metamorphes varisziches Grundgebirge: Brixen Quartzphyllit", "geologie_eignung": 0.65, "geologie_klasse": "mittel", "schutzgebiet": null, "im_schutzgebiet": false, "dist_weg_m": 6.2472399789104944, "weg_typ": "service", "score_wall_height": 1.0, "score_slope_compact": 0.2195, "score_geology": 0.65, "score_south_aspect": 0.5961, "score_access": 1.0, "score": 0.7133, "profil": "05m", "lat": 46.730304863662688, "lon": 11.882588786476708 }, "geometry": { "type": "Polygon", "coordinates": [ [ [ 11.882530281721708, 46.730561874145998 ], [ 11.882529323248615, 46.730543898573494 ], [ 11.882503180785188, 46.730544557616845 ], [ 11.882502222321678, 46.730526582043865 ], [ 11.882528364776441, 46.730525923000918 ], [ 11.882527406305186, 46.730507947428286 ], [ 11.882605833637966, 46.730505970264907 ], [ 11.882600082673822, 46.730398116834948 ], [ 11.88252165549698, 46.730400093990902 ], [ 11.882520697032165, 46.730382118417772 ], [ 11.882442269873033, 46.730384095518808 ], [ 11.88244131143513, 46.730366119944364 ], [ 11.882415169055577, 46.730366778965703 ], [ 11.882412293773369, 46.730312852240665 ], [ 11.882438436126931, 46.730312193220556 ], [ 11.882437477692708, 46.730294217645813 ], [ 11.882463620036688, 46.730293558620154 ], [ 11.882460744713542, 46.730239631896744 ], [ 11.882486887030611, 46.730238972866353 ], [ 11.882484011689757, 46.730185046143518 ], [ 11.882510153979917, 46.730184387108402 ], [ 11.882509195526142, 46.730166411534398 ], [ 11.88253533780672, 46.730165752493711 ], [ 11.882531503966163, 46.730093850198614 ], [ 11.88255764621117, 46.730093191153621 ], [ 11.882556687744669, 46.730075215580072 ], [ 11.882582829980091, 46.73007455652953 ], [ 11.882581871505847, 46.730056580956322 ], [ 11.882660298180609, 46.730054603770128 ], [ 11.882661256680842, 46.730072579342107 ], [ 11.882687398912589, 46.73007192026769 ], [ 11.882688357422404, 46.730089895839178 ], [ 11.882662215181998, 46.730090554914 ], [ 11.882668924715841, 46.730216383915277 ], [ 11.88269506701689, 46.730215724837578 ], [ 11.882696025534067, 46.73023370040849 ], [ 11.882669883224354, 46.730234359486602 ], [ 11.882674675780725, 46.730324237342145 ], [ 11.882700818133754, 46.730323578261974 ], [ 11.882701776656452, 46.730341553832467 ], [ 11.882727919017222, 46.730340894745922 ], [ 11.882728877549503, 46.730358870315925 ], [ 11.882702735180068, 46.730359529402882 ], [ 11.88270944487115, 46.730485358393736 ], [ 11.882683302440151, 46.73048601747761 ], [ 11.882685219485701, 46.730521968618028 ], [ 11.882659077036456, 46.73052262769675 ], [ 11.882660035551947, 46.730540603267272 ], [ 11.882633893093121, 46.730541262340445 ], [ 11.882634851600868, 46.730559237911294 ], [ 11.882530281721708, 46.730561874145998 ] ] ] } },
{ "type": "Feature", "properties": { "id": 24, "area_m2": 64.0, "n_cells": 16, "vert_extent_m": 16.0408935546875, "z_min_m": 1346.779052734375, "z_max_m": 1362.8199462890625, "elev_m": 1354.6676483154297, "slope_mean_deg": 65.478374719619751, "slope_max_deg": 69.433036804199219, "slope_std_deg": 2.6063692052610001, "slope05_std_deg": 5.6894087195396423, "ndom_mean_m": 0.56394624710083008, "aspect_mean_deg": 155.43056985210762, "centroid_e": 719284.25, "centroid_n": 5176186.5, "geologie": "Niedriggradig metamorphes varisziches Grundgebirge: Brixen Quartzphyllit", "geologie_eignung": 0.65, "geologie_klasse": "mittel", "schutzgebiet": null, "im_schutzgebiet": false, "dist_weg_m": 6.4217903120453776, "weg_typ": "unclassified", "score_wall_height": 0.401, "score_slope_compact": 0.8957, "score_geology": 0.65, "score_south_aspect": 0.9547, "score_access": 1.0, "score": 0.6927, "profil": "05m", "lat": 46.703262940770557, "lon": 11.868575713972614 }, "geometry": { "type": "Polygon", "coordinates": [ [ [ 11.86862441874505, 46.703317968136375 ], [ 11.868623465798734, 46.703299992258486 ], [ 11.868597336170273, 46.703300647834624 ], [ 11.868596383233523, 46.703282671956266 ], [ 11.8685702536128, 46.703283327526023 ], [ 11.868569300685614, 46.70326535164719 ], [ 11.868543171072629, 46.703266007210573 ], [ 11.86854221815501, 46.703248031331256 ], [ 11.868516088549759, 46.703248686888287 ], [ 11.868517041458727, 46.703266662768023 ], [ 11.868490911843912, 46.703267318319504 ], [ 11.868489958943593, 46.703249342439356 ], [ 11.868463829336516, 46.703249997984464 ], [ 11.868462876445763, 46.70323202210384 ], [ 11.868489006044191, 46.703231366559137 ], [ 11.868488053145704, 46.703213390678854 ], [ 11.868514182734566, 46.703212735128609 ], [ 11.868515135641704, 46.70323071100848 ], [ 11.868541265238305, 46.703230055451861 ], [ 11.86854221815501, 46.703248031331256 ], [ 11.868568347759345, 46.703247375768278 ], [ 11.86856739483399, 46.703229399889288 ], [ 11.868593524428759, 46.703228744320747 ], [ 11.868594477362766, 46.703246720199317 ], [ 11.868620606965274, 46.703246064624409 ], [ 11.868621559908846, 46.703264040502518 ], [ 11.86864768951909, 46.703263384921243 ], [ 11.868648642472227, 46.703281360798854 ], [ 11.868674772090209, 46.703280705211213 ], [ 11.868675725052913, 46.703298681088334 ], [ 11.86864959542628, 46.703299336676395 ], [ 11.868650548381247, 46.703317312553871 ], [ 11.86862441874505, 46.703317968136375 ] ] ] } },
{ "type": "Feature", "properties": { "id": 10, "area_m2": 48.0, "n_cells": 12, "vert_extent_m": 16.07098388671875, "z_min_m": 974.1400146484375, "z_max_m": 990.21099853515625, "elev_m": 982.08173624674475, "slope_mean_deg": 66.772227923075363, "slope_max_deg": 69.901329040527344, "slope_std_deg": 2.4351683438574567, "slope05_std_deg": 1.7690694782262046, "ndom_mean_m": 1.5006243387858074, "aspect_mean_deg": 217.78097336814963, "centroid_e": 719814.75, "centroid_n": 5179846.75, "geologie": "Niedriggradig metamorphes varisziches Grundgebirge: Brixen Quartzphyllit", "geologie_eignung": 0.65, "geologie_klasse": "mittel", "schutzgebiet": null, "im_schutzgebiet": false, "dist_weg_m": 11.276016716619022, "weg_typ": "service", "score_wall_height": 0.4018, "score_slope_compact": 0.9026, "score_geology": 0.65, "score_south_aspect": 0.8952, "score_access": 1.0, "score": 0.6854, "profil": "05m", "lat": 46.735986627786424, "lon": 11.877256275406857 }, "geometry": { "type": "Polygon", "coordinates": [ [ [ 11.877218971365242, 46.736023565908148 ], [ 11.877218014474298, 46.73600559026891 ], [ 11.877191869249426, 46.736006248157338 ], [ 11.877190912368066, 46.735988272517623 ], [ 11.877217057584271, 46.735987614629622 ], [ 11.877216100695163, 46.735969638990234 ], [ 11.877242245901783, 46.735968981096683 ], [ 11.87724128900493, 46.73595100545765 ], [ 11.877293579398081, 46.735949689653459 ], [ 11.87729453631227, 46.735967665291668 ], [ 11.877320681516133, 46.735967007380204 ], [ 11.877321638439907, 46.735984983017943 ], [ 11.877295493227376, 46.735985640929812 ], [ 11.877296450143401, 46.736003616567878 ], [ 11.877270304921286, 46.73600427447419 ], [ 11.877271261829563, 46.736022250112597 ], [ 11.877218971365242, 46.736023565908148 ] ] ] } },
{ "type": "Feature", "properties": { "id": 18, "area_m2": 96.0, "n_cells": 24, "vert_extent_m": 34.1900634765625, "z_min_m": 1009.14599609375, "z_max_m": 1043.3360595703125, "elev_m": 1024.3649342854817, "slope_mean_deg": 68.620095352331802, "slope_max_deg": 79.370002746582031, "slope_std_deg": 15.791232227980288, "slope05_std_deg": 7.5967898915211363, "ndom_mean_m": 1.7197376887003581, "aspect_mean_deg": 265.75862199328981, "centroid_e": 720672.33333333337, "centroid_n": 5178655.25, "geologie": "Niedriggradig metamorphes varisziches Grundgebirge: Brixen Quartzphyllit", "geologie_eignung": 0.65, "geologie_klasse": "mittel", "schutzgebiet": null, "im_schutzgebiet": false, "dist_weg_m": 5.126586383084236, "weg_typ": "service", "score_wall_height": 0.8548, "score_slope_compact": 0.3684, "score_geology": 0.65, "score_south_aspect": 0.537, "score_access": 1.0, "score": 0.6834, "profil": "05m", "lat": 46.724995082919818, "lon": 11.887894916100265 }, "geometry": { "type": "Polygon", "coordinates": [ [ [ 11.887863792536757, 46.725045368329461 ], [ 11.887862832476619, 46.725027392824018 ], [ 11.887836692801056, 46.725028053026563 ], [ 11.887834772700868, 46.724992102014653 ], [ 11.887808633041704, 46.724992762210398 ], [ 11.887807673001653, 46.724974786703925 ], [ 11.887833812652158, 46.724974126508585 ], [ 11.887832852604367, 46.724956151002445 ], [ 11.887885131885291, 46.724954830594683 ], [ 11.887884171821101, 46.724936855089297 ], [ 11.887910311451519, 46.724936194876889 ], [ 11.88791127152437, 46.724954170381864 ], [ 11.887937411162527, 46.724953510163076 ], [ 11.88793837124496, 46.724971485667567 ], [ 11.887964510890859, 46.724970825442398 ], [ 11.887967391169665, 46.725024751954209 ], [ 11.887941251497786, 46.725025412180607 ], [ 11.887942211583903, 46.725043387684806 ], [ 11.887863792536757, 46.725045368329461 ] ] ] } },
{ "type": "Feature", "properties": { "id": 21, "area_m2": 112.0, "n_cells": 28, "vert_extent_m": 22.0699462890625, "z_min_m": 1082.259033203125, "z_max_m": 1104.3289794921875, "elev_m": 1093.3158220563616, "slope_mean_deg": 62.318194798060823, "slope_max_deg": 65.228973388671875, "slope_std_deg": 1.5441674422688068, "slope05_std_deg": 4.0867934870932787, "ndom_mean_m": 0.85326031276157921, "aspect_mean_deg": 276.44962108626379, "centroid_e": 722416.03571428568, "centroid_n": 5177507.3928571427, "geologie": "Niedriggradig metamorphes varisziches Grundgebirge: Brixen Quartzphyllit", "geologie_eignung": 0.65, "geologie_klasse": "mittel", "schutzgebiet": null, "im_schutzgebiet": false, "dist_weg_m": 30.757404276059344, "weg_typ": "unclassified", "score_wall_height": 0.5517, "score_slope_compact": 0.9382, "score_geology": 0.65, "score_south_aspect": 0.4438, "score_access": 1.0, "score": 0.6773, "profil": "05m", "lat": 46.714100748577366, "lon": 11.91012926600024 }, "geometry": { "type": "Polygon", "coordinates": [ [ [ 11.910183292131629, 46.714201586615161 ], [ 11.910182325023966, 46.714183611430656 ], [ 11.91015619110107, 46.714184276614084 ], [ 11.910154256905839, 46.714148326244036 ], [ 11.910128122999325, 46.714148991420686 ], [ 11.910127155911757, 46.71413101623515 ], [ 11.910101022012968, 46.714131681405412 ], [ 11.910099087857926, 46.714095731033268 ], [ 11.910072953975519, 46.714096396196751 ], [ 11.910071986908044, 46.714078421010143 ], [ 11.910045853033365, 46.714079086167253 ], [ 11.910042951862472, 46.714025160605779 ], [ 11.910069085711187, 46.71402449544992 ], [ 11.910068118647423, 46.714006520263034 ], [ 11.910094252486553, 46.714005855101625 ], [ 11.910095219558972, 46.714023830288092 ], [ 11.910121353405831, 46.714023165120324 ], [ 11.910123287570759, 46.714059115492212 ], [ 11.910149421434001, 46.714058450317644 ], [ 11.910152322714319, 46.714112375873697 ], [ 11.910178456602596, 46.714111710691917 ], [ 11.910179423706547, 46.714129685876713 ], [ 11.91020555760255, 46.71412902068856 ], [ 11.910207491830546, 46.714164971057095 ], [ 11.910233625742929, 46.714164305862141 ], [ 11.910234592866974, 46.714182281045886 ], [ 11.910208458945934, 46.714182946241252 ], [ 11.91020942606225, 46.714200921425338 ], [ 11.910183292131629, 46.714201586615161 ] ] ] } },
{ "type": "Feature", "properties": { "id": 16, "area_m2": 64.0, "n_cells": 16, "vert_extent_m": 16.08001708984375, "z_min_m": 989.17999267578125, "z_max_m": 1005.260009765625, "elev_m": 998.28634643554688, "slope_mean_deg": 62.093190431594849, "slope_max_deg": 65.919807434082031, "slope_std_deg": 1.7401719951563601, "slope05_std_deg": 3.0387534089386463, "ndom_mean_m": 1.0901527404785156, "aspect_mean_deg": 241.75498219430727, "centroid_e": 720554.0, "centroid_n": 5178802.5, "geologie": "Niedriggradig metamorphes varisziches Grundgebirge: Brixen Quartzphyllit", "geologie_eignung": 0.65, "geologie_klasse": "mittel", "schutzgebiet": null, "im_schutzgebiet": false, "dist_weg_m": 5.8085650171006318, "weg_typ": "service", "score_wall_height": 0.402, "score_slope_compact": 0.9304, "score_geology": 0.65, "score_south_aspect": 0.7366, "score_access": 1.0, "score": 0.6673, "profil": "05m", "lat": 46.72635758321556, "lon": 11.886418967878944 }, "geometry": { "type": "Polygon", "coordinates": [ [ [ 11.886392558784607, 46.72641449910212 ], [ 11.886391599167299, 46.726396523577691 ], [ 11.886365458796476, 46.72639718345885 ], [ 11.88636257997606, 46.726343256883894 ], [ 11.886388720320898, 46.726342597003949 ], [ 11.886387760707272, 46.726324621479236 ], [ 11.886440041376865, 46.726323301702301 ], [ 11.886439081746841, 46.726305326178327 ], [ 11.886465222071594, 46.726304666281322 ], [ 11.886466181710279, 46.726322641804884 ], [ 11.886492322042773, 46.726321981901506 ], [ 11.886493281691044, 46.726339957424571 ], [ 11.88646714134989, 46.726340617328376 ], [ 11.88646810099042, 46.726358592851788 ], [ 11.886441960639681, 46.726359252750015 ], [ 11.886443879906182, 46.726395203797452 ], [ 11.886417739537199, 46.726395863690556 ], [ 11.886418699163169, 46.72641383921458 ], [ 11.886392558784607, 46.72641449910212 ] ] ] } },
{ "type": "Feature", "properties": { "id": 17, "area_m2": 56.0, "n_cells": 14, "vert_extent_m": 15.98004150390625, "z_min_m": 1006.9099731445312, "z_max_m": 1022.8900146484375, "elev_m": 1013.54978288923, "slope_mean_deg": 59.202896935599192, "slope_max_deg": 65.442314147949219, "slope_std_deg": 5.8937673469695682, "slope05_std_deg": 5.6225484865052362, "ndom_mean_m": 0.84566879272460938, "aspect_mean_deg": 214.23963193046646, "centroid_e": 720575.46428571432, "centroid_n": 5178799.3214285718, "geologie": "Niedriggradig metamorphes varisziches Grundgebirge: Brixen Quartzphyllit", "geologie_eignung": 0.65, "geologie_klasse": "mittel", "schutzgebiet": null, "im_schutzgebiet": false, "dist_weg_m": 7.6416253851571607, "weg_typ": "service", "score_wall_height": 0.3995, "score_slope_compact": 0.7642, "score_geology": 0.65, "score_south_aspect": 0.9133, "score_access": 1.0, "score": 0.6597, "profil": "05m", "lat": 46.726321932601692, "lon": 11.886697984542032 }, "geometry": { "type": "Polygon", "coordinates": [ [ [ 11.886678183473897, 46.726371288971215 ], [ 11.886677223763158, 46.72635331345117 ], [ 11.886651083419789, 46.726353973397124 ], [ 11.886648204319078, 46.72630004683532 ], [ 11.886674344636464, 46.726299386890609 ], [ 11.886673384929408, 46.726281411370273 ], [ 11.886725665544091, 46.726280091463778 ], [ 11.886726625268471, 46.726298066983283 ], [ 11.886752765583093, 46.726297407020667 ], [ 11.886754685051935, 46.726333358058653 ], [ 11.88672854471999, 46.726334018022079 ], [ 11.886729504447134, 46.726351993541371 ], [ 11.886703364105605, 46.726352653499255 ], [ 11.886704323825008, 46.726370629018881 ], [ 11.886678183473897, 46.726371288971215 ] ] ] } },
{ "type": "Feature", "properties": { "id": 14, "area_m2": 204.0, "n_cells": 51, "vert_extent_m": 30.25, "z_min_m": 987.9429931640625, "z_max_m": 1018.1929931640625, "elev_m": 1002.6625426049326, "slope_mean_deg": 55.143454215105841, "slope_max_deg": 73.570762634277344, "slope_std_deg": 20.326242919938409, "slope05_std_deg": 10.483292251240973, "ndom_mean_m": 1.3110664966059666, "aspect_mean_deg": 230.78393876241458, "centroid_e": 720515.25980392157, "centroid_n": 5178885.5931372549, "geologie": "Niedriggradig metamorphes varisziches Grundgebirge: Brixen Quartzphyllit", "geologie_eignung": 0.65, "geologie_klasse": "mittel", "schutzgebiet": null, "im_schutzgebiet": false, "dist_weg_m": 0.73426233842219679, "weg_typ": "service", "score_wall_height": 0.7562, "score_slope_compact": 0.187, "score_geology": 0.65, "score_south_aspect": 0.8161, "score_access": 1.0, "score": 0.6545, "profil": "05m", "lat": 46.727117185848044, "lon": 11.885952489481307 }, "geometry": { "type": "Polygon", "coordinates": [ [ [ 11.885936189263706, 46.727182008122419 ], [ 11.885935229772286, 46.72716403259318 ], [ 11.885830666758359, 46.727166671698015 ], [ 11.885829707302507, 46.727148696167042 ], [ 11.885803566555383, 46.727149355927935 ], [ 11.885802607109113, 46.727131380396479 ], [ 11.885828747847576, 46.727130720636005 ], [ 11.885827788393563, 46.727112745104897 ], [ 11.885853929122444, 46.727112085338881 ], [ 11.885852969660693, 46.727094109808121 ], [ 11.885879110379987, 46.727093450036527 ], [ 11.885878150910495, 46.727075474506108 ], [ 11.885904291620209, 46.727074814728965 ], [ 11.885903332142975, 46.72705683919888 ], [ 11.885955613542318, 46.727055519627548 ], [ 11.885954654048684, 46.727037544098216 ], [ 11.885980794738311, 46.727036884304027 ], [ 11.885981754240607, 46.72705485983294 ], [ 11.886007894937975, 46.727054200032363 ], [ 11.886008854449855, 46.727072175560814 ], [ 11.886061135859153, 46.727070855940944 ], [ 11.886062095389276, 46.727088831468485 ], [ 11.886088236101205, 46.727088171649186 ], [ 11.88608919564091, 46.727106147176251 ], [ 11.886063054920321, 46.727106806995955 ], [ 11.886064973985169, 46.727142758050682 ], [ 11.886038833246337, 46.727143417865243 ], [ 11.886039792771481, 46.727161393392905 ], [ 11.886013652023063, 46.72716205320193 ], [ 11.886014611540467, 46.727180028729933 ], [ 11.885936189263706, 46.727182008122419 ] ] ] } },
{ "type": "Feature", "properties": { "id": 5, "area_m2": 88.0, "n_cells": 22, "vert_extent_m": 31.20001220703125, "z_min_m": 917.28997802734375, "z_max_m": 948.489990234375, "elev_m": 930.119179465554, "slope_mean_deg": 63.226123983209781, "slope_max_deg": 73.522071838378906, "slope_std_deg": 6.8198041892983907, "slope05_std_deg": 3.9328297593376855, "ndom_mean_m": 0.79070923545143823, "aspect_mean_deg": 14.499922233202087, "centroid_e": 718878.11363636365, "centroid_n": 5182444.9318181816, "geologie": "Niedriggradig metamorphes varisziches Grundgebirge: Brixen Quartzphyllit", "geologie_eignung": 0.65, "geologie_klasse": "mittel", "schutzgebiet": null, "im_schutzgebiet": false, "dist_weg_m": 109.15740166187598, "weg_typ": "tertiary", "score_wall_height": 0.78, "score_slope_compact": 0.7272, "score_geology": 0.65, "score_south_aspect": 0.0159, "score_access": 0.9952, "score": 0.6503, "profil": "05m", "lat": 46.759646257782904, "lon": 11.866250498729698 }, "geometry": { "type": "Polygon", "coordinates": [ [ [ 11.866249472330976, 46.759716645781729 ], [ 11.866248518296329, 46.759698670044315 ], [ 11.866222361361288, 46.759699325678859 ], [ 11.866218545266566, 46.759627422726865 ], [ 11.866192388365322, 46.759628078353799 ], [ 11.866191434352608, 46.759610102615213 ], [ 11.866165277459125, 46.75961075823578 ], [ 11.866164323456006, 46.759592782496711 ], [ 11.866190480340812, 46.759592126876555 ], [ 11.866189526329929, 46.759574151137819 ], [ 11.866215683205144, 46.759573495512107 ], [ 11.866216637224701, 46.759591471250431 ], [ 11.866242794107675, 46.759590815618338 ], [ 11.866243748136828, 46.759608791356179 ], [ 11.866269905027565, 46.759608135717706 ], [ 11.86627085906631, 46.759626111455063 ], [ 11.866297015964806, 46.759625455810216 ], [ 11.866297970013145, 46.75964343154709 ], [ 11.866324126919402, 46.759642775895848 ], [ 11.866326035036181, 46.759678727368581 ], [ 11.866299878112571, 46.759679383020632 ], [ 11.866300832163656, 46.7596973587573 ], [ 11.86627467523045, 46.759698014403789 ], [ 11.866275629273776, 46.759715990140805 ], [ 11.866249472330976, 46.759716645781729 ] ] ] } },
{ "type": "Feature", "properties": { "id": 25, "area_m2": 44.0, "n_cells": 11, "vert_extent_m": 16.6199951171875, "z_min_m": 1097.5799560546875, "z_max_m": 1114.199951171875, "elev_m": 1106.4300537109375, "slope_mean_deg": 68.486143632368609, "slope_max_deg": 75.332160949707031, "slope_std_deg": 3.9641402105027668, "slope05_std_deg": 7.0771222629330373, "ndom_mean_m": 1.7426196011629971, "aspect_mean_deg": 265.42584042751491, "centroid_e": 721642.75, "centroid_n": 5174351.75, "geologie": "Permo-jurassische Sedimentabfolge", "geologie_eignung": 0.7, "geologie_klasse": "gemischt_karbonat_werfener", "schutzgebiet": null, "im_schutzgebiet": false, "dist_weg_m": 7.6633538431224206, "weg_typ": "primary", "score_wall_height": 0.4155, "score_slope_compact": 0.8414, "score_geology": 0.7, "score_south_aspect": 0.5399, "score_access": 1.0, "score": 0.6347, "profil": "05m", "lat": 46.685995511880215, "lon": 11.898505257469189 }, "geometry": { "type": "Polygon", "coordinates": [ [ [ 11.898494602869867, 46.686040781636599 ], [ 11.898493640589729, 46.686022806176972 ], [ 11.898467519980199, 46.686023468387475 ], [ 11.898464633171248, 46.685969542006923 ], [ 11.898490753754851, 46.685968879797649 ], [ 11.898489791478404, 46.685950904337737 ], [ 11.898515912052444, 46.685950242122928 ], [ 11.898516874337533, 46.685968217582435 ], [ 11.898542994919289, 46.685967555361259 ], [ 11.898545881806021, 46.686021481738088 ], [ 11.898519761198335, 46.686022143960514 ], [ 11.898520723487117, 46.686040119419729 ], [ 11.898494602869867, 46.686040781636599 ] ] ] } },
{ "type": "Feature", "properties": { "id": 4, "area_m2": 64.0, "n_cells": 16, "vert_extent_m": 19.01904296875, "z_min_m": 929.69097900390625, "z_max_m": 948.71002197265625, "elev_m": 939.97937393188477, "slope_mean_deg": 60.749308109283447, "slope_max_deg": 69.001808166503906, "slope_std_deg": 4.5890617096664501, "slope05_std_deg": 3.1638662815093994, "ndom_mean_m": 1.1234004497528076, "aspect_mean_deg": 71.586230961454291, "centroid_e": 718842.375, "centroid_n": 5182464.25, "geologie": "Niedriggradig metamorphes varisziches Grundgebirge: Brixen Quartzphyllit", "geologie_eignung": 0.65, "geologie_klasse": "mittel", "schutzgebiet": null, "im_schutzgebiet": false, "dist_weg_m": 94.812748966190568, "weg_typ": "tertiary", "score_wall_height": 0.4755, "score_slope_compact": 0.8164, "score_geology": 0.65, "score_south_aspect": 0.3421, "score_access": 1.0, "score": 0.611, "profil": "05m", "lat": 46.759831601974192, "lon": 11.865792306088318 }, "geometry": { "type": "Polygon", "coordinates": [ [ [ 11.865787232151275, 46.75989022799719 ], [ 11.865786278264576, 46.759872252253061 ], [ 11.865760121234953, 46.759872907783809 ], [ 11.865757259606383, 46.759818980549746 ], [ 11.865731102601877, 46.759819636073296 ], [ 11.865730148736196, 46.759801660328051 ], [ 11.865756305732024, 46.759801004804899 ], [ 11.86575535185858, 46.75978302906001 ], [ 11.865807665830136, 46.759781717996631 ], [ 11.865808619720932, 46.759799693740717 ], [ 11.865834776714012, 46.759799038199652 ], [ 11.865838592321071, 46.759870941173638 ], [ 11.865812435293281, 46.759871596716337 ], [ 11.865813389188659, 46.759889572460054 ], [ 11.865787232151275, 46.75989022799719 ] ] ] } },
{ "type": "Feature", "properties": { "id": 3, "area_m2": 64.0, "n_cells": 16, "vert_extent_m": 16.83001708984375, "z_min_m": 936.27197265625, "z_max_m": 953.10198974609375, "elev_m": 944.844482421875, "slope_mean_deg": 65.205780029296875, "slope_max_deg": 69.404365539550781, "slope_std_deg": 3.4746626956849544, "slope05_std_deg": 4.4412260018289089, "ndom_mean_m": 0.43765640258789062, "aspect_mean_deg": 43.756461243927816, "centroid_e": 718810.0, "centroid_n": 5182498.5, "geologie": "Niedriggradig metamorphes varisziches Grundgebirge: Brixen Quartzphyllit", "geologie_eignung": 0.65, "geologie_klasse": "mittel", "schutzgebiet": null, "im_schutzgebiet": false, "dist_weg_m": 82.879319018787101, "weg_typ": "tertiary", "score_wall_height": 0.4208, "score_slope_compact": 0.861, "score_geology": 0.65, "score_south_aspect": 0.1389, "score_access": 1.0, "score": 0.5703, "profil": "05m", "lat": 46.760150047381963, "lon": 11.865385222421269 }, "geometry": { "type": "Polygon", "coordinates": [ [ [ 11.865331665134411, 46.760189638658765 ], [ 11.865330711389252, 46.760171662908412 ], [ 11.865304554204306, 46.760172318338221 ], [ 11.86530360046874, 46.760154342587384 ], [ 11.865329757645009, 46.760153687157981 ], [ 11.865328803901681, 46.760135711407472 ], [ 11.865381118234117, 46.760134400531577 ], [ 11.865380164474349, 46.760116424781813 ], [ 11.865406321630518, 46.760115769335322 ], [ 11.865405367862987, 46.760097793585913 ], [ 11.865431525009562, 46.760097138133837 ], [ 11.865432478785767, 46.760115113882847 ], [ 11.865458635940103, 46.760114458424411 ], [ 11.8654595897259, 46.760132434172924 ], [ 11.86543343256289, 46.760133089631786 ], [ 11.865435340119879, 46.76016904112943 ], [ 11.865409182938595, 46.760169696583134 ], [ 11.865410136709787, 46.760187672332272 ], [ 11.865331665134411, 46.760189638658765 ] ] ] } },
{ "type": "Feature", "properties": { "id": 11, "area_m2": 44.0, "n_cells": 11, "vert_extent_m": 13.7900390625, "z_min_m": 1468.8599853515625, "z_max_m": 1482.6500244140625, "elev_m": 1474.262362393466, "slope_mean_deg": 61.771708054976031, "slope_max_deg": 70.930519104003906, "slope_std_deg": 8.4404667017195951, "slope05_std_deg": 9.3104802911931817, "ndom_mean_m": 1.3107417713512073, "aspect_mean_deg": 277.63852267466427, "centroid_e": 724196.75, "centroid_n": 5179511.75, "geologie": "Niedriggradig metamorphes varisziches Grundgebirge: Brixen Quartzphyllit", "geologie_eignung": 0.65, "geologie_klasse": "mittel", "schutzgebiet": null, "im_schutzgebiet": false, "dist_weg_m": 5.4538545909750358, "weg_typ": "unclassified", "score_wall_height": 0.3448, "score_slope_compact": 0.6624, "score_geology": 0.65, "score_south_aspect": 0.4335, "score_access": 1.0, "score": 0.5482, "profil": "05m", "lat": 46.731520081404788, "lon": 11.934374773002398 }, "geometry": { "type": "Polygon", "coordinates": [ [ [ 11.934364141454349, 46.731565353709207 ], [ 11.934363165726614, 46.731547378967271 ], [ 11.93433702398166, 46.731548049862361 ], [ 11.934334096830062, 46.731494125634889 ], [ 11.934360238549029, 46.731493454741063 ], [ 11.934359262825041, 46.731475479998849 ], [ 11.934385404534408, 46.731474809099467 ], [ 11.93438638026706, 46.731492783841276 ], [ 11.934412521984154, 46.731492112935513 ], [ 11.934415449213711, 46.731546037159212 ], [ 11.934389307470632, 46.731546708066219 ], [ 11.934390283207028, 46.731564682807736 ], [ 11.934364141454349, 46.731565353709207 ] ] ] } },
{ "type": "Feature", "properties": { "id": 20, "area_m2": 88.0, "n_cells": 22, "vert_extent_m": 15.679931640625, "z_min_m": 1289.52001953125, "z_max_m": 1305.199951171875, "elev_m": 1296.4539018110795, "slope_mean_deg": 58.913468274203211, "slope_max_deg": 65.453262329101562, "slope_std_deg": 4.014477386713641, "slope05_std_deg": 4.6515459472482856, "ndom_mean_m": 0.62389304421164771, "aspect_mean_deg": 16.499676713269736, "centroid_e": 720204.29545454541, "centroid_n": 5178379.8409090908, "geologie": "Niedriggradig metamorphes varisziches Grundgebirge: Brixen Quartzphyllit", "geologie_eignung": 0.65, "geologie_klasse": "mittel", "schutzgebiet": null, "im_schutzgebiet": false, "dist_weg_m": 42.23380665186211, "weg_typ": "footway", "score_wall_height": 0.392, "score_slope_compact": 0.8394, "score_geology": 0.65, "score_south_aspect": 0.0206, "score_access": 1.0, "score": 0.5382, "profil": "05m", "lat": 46.722674099141067, "lon": 11.881645797582026 }, "geometry": { "type": "Polygon", "coordinates": [ [ [ 11.88158874268764, 46.722719718265125 ], [ 11.881587784789646, 46.722701742652987 ], [ 11.881561646092905, 46.722702401397271 ], [ 11.88155973031699, 46.722666450171992 ], [ 11.881585868996414, 46.72266579142854 ], [ 11.881584911101175, 46.722647815816188 ], [ 11.881637188439944, 46.722646498312223 ], [ 11.881636230528306, 46.722628522700631 ], [ 11.881688507846079, 46.722627205173623 ], [ 11.881689465775036, 46.722645180784376 ], [ 11.881715604441201, 46.722644522011521 ], [ 11.881716562379737, 46.722662497621791 ], [ 11.881742701053643, 46.722661838842562 ], [ 11.881743659001758, 46.722679814452356 ], [ 11.881717520319192, 46.72268047323201 ], [ 11.881718478259566, 46.722698448842152 ], [ 11.881640062180372, 46.722700425146542 ], [ 11.881641020095685, 46.722718400757849 ], [ 11.88158874268764, 46.722719718265125 ] ] ] } },
{ "type": "Feature", "properties": { "id": 15, "area_m2": 40.0, "n_cells": 10, "vert_extent_m": 10.58001708984375, "z_min_m": 995.47100830078125, "z_max_m": 1006.051025390625, "elev_m": 1002.5790710449219, "slope_mean_deg": 53.173628616333005, "slope_max_deg": 64.055313110351562, "slope_std_deg": 13.700083859460285, "slope05_std_deg": 10.134862673282623, "ndom_mean_m": 0.68993644714355473, "aspect_mean_deg": 237.85435731810776, "centroid_e": 720550.15, "centroid_n": 5178815.15, "geologie": "Niedriggradig metamorphes varisziches Grundgebirge: Brixen Quartzphyllit", "geologie_eignung": 0.65, "geologie_klasse": "mittel", "schutzgebiet": null, "im_schutzgebiet": false, "dist_weg_m": 2.2772044414561634, "weg_typ": "service", "score_wall_height": 0.2645, "score_slope_compact": 0.452, "score_geology": 0.65, "score_south_aspect": 0.766, "score_access": 1.0, "score": 0.5279, "profil": "05m", "lat": 46.72647254868663, "lon": 11.886374717240498 }, "geometry": { "type": "Polygon", "coordinates": [ [ [ 11.886345076038463, 46.726505696484544 ], [ 11.886344116433872, 46.726487720959639 ], [ 11.886317976017901, 46.726488380830943 ], [ 11.886317016422892, 46.726470405305548 ], [ 11.886343156830202, 46.72646974543467 ], [ 11.886342197227453, 46.726451769909623 ], [ 11.88636833762518, 46.726451110033175 ], [ 11.886367378014691, 46.726433134508476 ], [ 11.886393518402835, 46.726432474626478 ], [ 11.886394478021986, 46.726450450150764 ], [ 11.886420618417873, 46.7264497902624 ], [ 11.886422537676257, 46.726485741309943 ], [ 11.88639639726305, 46.726486401199139 ], [ 11.886397356884965, 46.726504376723213 ], [ 11.886345076038463, 46.726505696484544 ] ] ] } },
{ "type": "Feature", "properties": { "id": 19, "area_m2": 60.0, "n_cells": 15, "vert_extent_m": 9.83001708984375, "z_min_m": 1014.6530151367188, "z_max_m": 1024.4830322265625, "elev_m": 1019.1161661783855, "slope_mean_deg": 40.868630027770998, "slope_max_deg": 64.543983459472656, "slope_std_deg": 16.367044898153498, "slope05_std_deg": 9.1171089649200443, "ndom_mean_m": 0.44625066121419271, "aspect_mean_deg": 207.65714715971043, "centroid_e": 720717.81666666665, "centroid_n": 5178576.0166666666, "geologie": "Niedriggradig metamorphes varisziches Grundgebirge: Brixen Quartzphyllit", "geologie_eignung": 0.65, "geologie_klasse": "mittel", "schutzgebiet": null, "im_schutzgebiet": false, "dist_weg_m": 3.3308523575878386, "weg_typ": "primary", "score_wall_height": 0.2458, "score_slope_compact": 0.3453, "score_geology": 0.65, "score_south_aspect": 0.9429, "score_access": 1.0, "score": 0.5265, "profil": "05m", "lat": 46.724267937767436, "lon": 11.888451333445268 }, "geometry": { "type": "Polygon", "coordinates": [ [ [ 11.888452734680955, 46.724310501791543 ], [ 11.888451774449829, 46.724292526293119 ], [ 11.88839949583484, 46.724293846945514 ], [ 11.888398535621954, 46.724275871446196 ], [ 11.888372396321738, 46.724276531763053 ], [ 11.888371436118435, 46.724258556263244 ], [ 11.888397575409991, 46.724257895946813 ], [ 11.888396615198948, 46.724239920447346 ], [ 11.888501172321316, 46.724237279123642 ], [ 11.888502132567, 46.724255254621461 ], [ 11.888528271853948, 46.724254594275216 ], [ 11.888529232109214, 46.724272569772538 ], [ 11.888503092813604, 46.724273230119195 ], [ 11.88850405306113, 46.724291205616865 ], [ 11.88847791375594, 46.724291865957973 ], [ 11.888478873995728, 46.724309841455977 ], [ 11.888452734680955, 46.724310501791543 ] ] ] } },
{ "type": "Feature", "properties": { "id": 7, "area_m2": 104.0, "n_cells": 26, "vert_extent_m": 15.08001708984375, "z_min_m": 950.27099609375, "z_max_m": 965.35101318359375, "elev_m": 957.70501474233777, "slope_mean_deg": 38.415572551580574, "slope_max_deg": 65.893753051757812, "slope_std_deg": 22.610730648707371, "slope05_std_deg": 11.162614056697258, "ndom_mean_m": 0.22175510113055891, "aspect_mean_deg": 227.05767412264765, "centroid_e": 719645.2884615385, "centroid_n": 5180068.288461538, "geologie": "Niedriggradig metamorphes varisziches Grundgebirge: Brixen Quartzphyllit", "geologie_eignung": 0.65, "geologie_klasse": "mittel", "schutzgebiet": null, "im_schutzgebiet": false, "dist_weg_m": 4.1687023281808981, "weg_typ": "service", "score_wall_height": 0.377, "score_slope_compact": 0.0956, "score_geology": 0.65, "score_south_aspect": 0.8406, "score_access": 1.0, "score": 0.5072, "profil": "05m", "lat": 46.738033501824766, "lon": 11.87514688764198 }, "geometry": { "type": "Polygon", "coordinates": [ [ [ 11.875156010891258, 46.738091425334247 ], [ 11.875155054616794, 46.738073449668974 ], [ 11.87507661579885, 46.738075421968645 ], [ 11.875075659551307, 46.738057446302072 ], [ 11.875049513285489, 46.738058103722942 ], [ 11.875048557047529, 46.738040128055886 ], [ 11.87507470330468, 46.738039470635414 ], [ 11.87507374705897, 46.738021494968692 ], [ 11.875099893306535, 46.738020837542663 ], [ 11.875098937053076, 46.738002861876289 ], [ 11.875125083291056, 46.738002204444697 ], [ 11.875124127029849, 46.737984228778657 ], [ 11.875150273258242, 46.737983571341523 ], [ 11.875149316989285, 46.737965595675817 ], [ 11.875175463208096, 46.737964938233127 ], [ 11.875176419485719, 46.737982913898414 ], [ 11.875202565712279, 46.737982256449349 ], [ 11.875205434576657, 46.738036183443562 ], [ 11.8752315808283, 46.738035525987279 ], [ 11.875232537126928, 46.738053501651493 ], [ 11.875206390866619, 46.73805415910816 ], [ 11.875207347157499, 46.738072134772679 ], [ 11.875181200887605, 46.738072792223818 ], [ 11.875182157170736, 46.738090767888671 ], [ 11.875156010891258, 46.738091425334247 ] ] ] } },
{ "type": "Feature", "properties": { "id": 2, "area_m2": 84.0, "n_cells": 21, "vert_extent_m": 15.760009765625, "z_min_m": 869.2659912109375, "z_max_m": 885.0260009765625, "elev_m": 875.88968040829616, "slope_mean_deg": 39.43025808107285, "slope_max_deg": 70.996536254882812, "slope_std_deg": 22.669309920402299, "slope05_std_deg": 10.842738781656537, "ndom_mean_m": 0.65967269170851939, "aspect_mean_deg": 249.63637676392898, "centroid_e": 718872.94047619053, "centroid_n": 5182595.1785714282, "geologie": "Niedriggradig metamorphes varisziches Grundgebirge: Brixen Quartzphyllit", "geologie_eignung": 0.65, "geologie_klasse": "mittel", "schutzgebiet": null, "im_schutzgebiet": false, "dist_weg_m": 67.771788328506389, "weg_typ": "track", "score_wall_height": 0.394, "score_slope_compact": 0.0932, "score_geology": 0.65, "score_south_aspect": 0.674, "score_access": 1.0, "score": 0.4876, "profil": "05m", "lat": 46.760998351603433, "lon": 11.866254512873104 }, "geometry": { "type": "Polygon", "coordinates": [ [ [ 11.866215443088093, 46.761049472776527 ], [ 11.866214489020368, 46.761031497042794 ], [ 11.866188331439522, 46.761032152683747 ], [ 11.866185469267872, 46.760978225480855 ], [ 11.866211626822684, 46.760977569841117 ], [ 11.866210672758621, 46.760959594107092 ], [ 11.866315302933998, 46.760956971490081 ], [ 11.866316257032768, 46.760974947222479 ], [ 11.866342414583, 46.760974291552884 ], [ 11.866343368691368, 46.760992267284799 ], [ 11.86631721113246, 46.760992922954799 ], [ 11.866318165233064, 46.761010898687054 ], [ 11.866292007664562, 46.761011554351491 ], [ 11.866292961757406, 46.761029530084073 ], [ 11.866266804179309, 46.761030185742946 ], [ 11.866267758264392, 46.761048161475877 ], [ 11.866215443088093, 46.761049472776527 ] ] ] } },
{ "type": "Feature", "properties": { "id": 6, "area_m2": 212.0, "n_cells": 53, "vert_extent_m": 16.6500244140625, "z_min_m": 930.7249755859375, "z_max_m": 947.375, "elev_m": 936.78335744030073, "slope_mean_deg": 33.839397272973692, "slope_max_deg": 68.269012451171875, "slope_std_deg": 24.449905492824559, "slope05_std_deg": 7.8514060186889933, "ndom_mean_m": 0.2707920434339991, "aspect_mean_deg": 285.90268725155761, "centroid_e": 719442.03301886795, "centroid_n": 5180638.0896226419, "geologie": "Niedriggradig metamorphes varisziches Grundgebirge: Brixen Quartzphyllit", "geologie_eignung": 0.65, "geologie_klasse": "mittel", "schutzgebiet": null, "im_schutzgebiet": false, "dist_weg_m": 0.11036145449099204, "weg_typ": "service", "score_wall_height": 0.4163, "score_slope_compact": 0.022, "score_geology": 0.65, "score_south_aspect": 0.363, "score_access": 1.0, "score": 0.4345, "profil": "05m", "lat": 46.743221571653358, "lon": 11.87276192702088 }, "geometry": { "type": "Polygon", "coordinates": [ [ [ 11.872789469381512, 46.74331682146498 ], [ 11.872788513719174, 46.743298845778853 ], [ 11.872710067159817, 46.74330081662378 ], [ 11.872709111524404, 46.743282840936352 ], [ 11.87268296267812, 46.743283497872319 ], [ 11.872676273316605, 46.743157668055453 ], [ 11.872702422102202, 46.743157011122364 ], [ 11.87270146647413, 46.743139035434353 ], [ 11.872806061572673, 46.743136407643938 ], [ 11.872807017235424, 46.743154383330314 ], [ 11.872833166016436, 46.743153726367375 ], [ 11.872836033036203, 46.74320765342479 ], [ 11.872862181842304, 46.743206996454667 ], [ 11.872863137526064, 46.743224972139927 ], [ 11.872836988711292, 46.743225629110462 ], [ 11.872840811420827, 46.743297531852399 ], [ 11.872814662570459, 46.743298188818606 ], [ 11.872815618241466, 46.743316164504328 ], [ 11.872789469381512, 46.74331682146498 ] ] ] } }
]
}
